{
"type": "FeatureCollection",
"name": "hanoi_districts",
"crs": { "type": "name", "properties": { "name": "urn:ogc:def:crs:OGC:1.3:CRS84" } },
"features": [
{ "type": "Feature", "properties": { "name": "Ba Đình", "kind": "Quận", "slug": "BaDinh" }, "geometry": { "type": "MultiPolygon", "coordinates": [ [ [ [ 105.816, 21.0161 ], [ 105.8106, 21.0187 ], [ 105.812, 21.0215 ], [ 105.8103, 21.0262 ], [ 105.8069, 21.0258 ], [ 105.8066, 21.0274 ], [ 105.8014, 21.0302 ], [ 105.8071, 21.0401 ], [ 105.8061, 21.0476 ], [ 105.8109, 21.0462 ], [ 105.8146, 21.043 ], [ 105.8283, 21.0396 ], [ 105.831, 21.0417 ], [ 105.8363, 21.0417 ], [ 105.8369, 21.047 ], [ 105.84, 21.0506 ], [ 105.8421, 21.0485 ], [ 105.8492, 21.0544 ], [ 105.8564, 21.0424 ], [ 105.8446, 21.0394 ], [ 105.843, 21.0294 ], [ 105.8393, 21.0285 ], [ 105.8322, 21.0315 ], [ 105.8297, 21.0302 ], [ 105.8303, 21.0321 ], [ 105.8288, 21.032 ], [ 105.8198, 21.0234 ], [ 105.8211, 21.0232 ], [ 105.8193, 21.0191 ], [ 105.816, 21.0161 ] ] ] ] } },
{ "type": "Feature", "properties": { "name": "Ba Vì", "kind": "Huyện", "slug": "BaVi" }, "geometry": { "type": "MultiPolygon", "coordinates": [ [ [ [ 105.4448, 21.2648 ], [ 105.4475, 21.2506 ], [ 105.4522, 21.238 ], [ 105.4621, 21.2227 ], [ 105.4652, 21.2105 ], [ 105.468, 21.1828 ], [ 105.4751, 21.1726 ], [ 105.4695, 21.1678 ], [ 105.4678, 21.1686 ], [ 105.4675, 21.1637 ], [ 105.466, 21.1625 ], [ 105.467, 21.1613 ], [ 105.463, 21.1595 ], [ 105.464, 21.1559 ], [ 105.4622, 21.1563 ], [ 105.4605, 21.1538 ], [ 105.4614, 21.1502 ], [ 105.4593, 21.1497 ], [ 105.457, 21.1455 ], [ 105.452, 21.1472 ], [ 105.4539, 21.1453 ], [ 105.4514, 21.1427 ], [ 105.4484, 21.144 ], [ 105.4489, 21.147 ], [ 105.4461, 21.1467 ], [ 105.4454, 21.1493 ], [ 105.4378, 21.1472 ], [ 105.4346, 21.1514 ], [ 105.4321, 21.1511 ], [ 105.4278, 21.1475 ], [ 105.4239, 21.1472 ], [ 105.4202, 21.1437 ], [ 105.4187, 21.1392 ], [ 105.4155, 21.1389 ], [ 105.4136, 21.1352 ], [ 105.4186, 21.1348 ], [ 105.4203, 21.1316 ], [ 105.4252, 21.1286 ], [ 105.4253, 21.1221 ], [ 105.4311, 21.12 ], [ 105.4292, 21.1173 ], [ 105.4296, 21.1116 ], [ 105.4314, 21.1094 ], [ 105.4303, 21.1066 ], [ 105.4238, 21.1047 ], [ 105.4266, 21.1055 ], [ 105.4267, 21.1035 ], [ 105.4302, 21.1039 ], [ 105.4348, 21.1017 ], [ 105.4409, 21.1046 ], [ 105.4403, 21.1022 ], [ 105.4426, 21.0989 ], [ 105.4411, 21.0976 ], [ 105.4453, 21.0951 ], [ 105.4408, 21.0919 ], [ 105.4389, 21.0869 ], [ 105.4381, 21.0817 ], [ 105.4402, 21.0817 ], [ 105.44, 21.0798 ], [ 105.4384, 21.0795 ], [ 105.441, 21.0775 ], [ 105.4414, 21.0733 ], [ 105.4392, 21.0695 ], [ 105.4412, 21.0671 ], [ 105.4401, 21.0657 ], [ 105.4451, 21.0622 ], [ 105.449, 21.063 ], [ 105.4544, 21.0672 ], [ 105.4544, 21.0633 ], [ 105.4596, 21.0704 ], [ 105.4597, 21.0665 ], [ 105.4569, 21.0623 ], [ 105.4582, 21.0589 ], [ 105.4612, 21.0662 ], [ 105.4606, 21.068 ], [ 105.4658, 21.0717 ], [ 105.4609, 21.0643 ], [ 105.4614, 21.058 ], [ 105.4585, 21.0552 ], [ 105.4572, 21.0497 ], [ 105.459, 21.0477 ], [ 105.4572, 21.0318 ], [ 105.463, 21.0277 ], [ 105.4649, 21.0245 ], [ 105.4716, 21.021 ], [ 105.4679, 21.0131 ], [ 105.4683, 21.0109 ], [ 105.4671, 21.009 ], [ 105.4602, 21.013 ], [ 105.4548, 21.0115 ], [ 105.4477, 21.015 ], [ 105.4439, 21.0139 ], [ 105.4339, 21.0171 ], [ 105.4313, 21.0147 ], [ 105.4168, 21.0113 ], [ 105.413, 21.0142 ], [ 105.4113, 21.0182 ], [ 105.4026, 21.0138 ], [ 105.3976, 21.0149 ], [ 105.3936, 21.0138 ], [ 105.3871, 21.0198 ], [ 105.387, 21.0246 ], [ 105.3754, 21.0145 ], [ 105.3666, 21.013 ], [ 105.3534, 21.0074 ], [ 105.3477, 21.0141 ], [ 105.3388, 21.0136 ], [ 105.3359, 21.0103 ], [ 105.3337, 21.0102 ], [ 105.3352, 21.0094 ], [ 105.3333, 21.0081 ], [ 105.3265, 21.0087 ], [ 105.3252, 21.0103 ], [ 105.3278, 21.0138 ], [ 105.3268, 21.0163 ], [ 105.3289, 21.0174 ], [ 105.3249, 21.0214 ], [ 105.3238, 21.0175 ], [ 105.3221, 21.0195 ], [ 105.3209, 21.0187 ], [ 105.3218, 21.0147 ], [ 105.3153, 21.0113 ], [ 105.2999, 21.029 ], [ 105.2948, 21.0454 ], [ 105.294, 21.0547 ], [ 105.3079, 21.0828 ], [ 105.3173, 21.0927 ], [ 105.3205, 21.1099 ], [ 105.3197, 21.1138 ], [ 105.3057, 21.1378 ], [ 105.298, 21.1441 ], [ 105.2915, 21.1529 ], [ 105.2881, 21.1641 ], [ 105.2891, 21.1703 ], [ 105.2971, 21.1841 ], [ 105.3041, 21.1905 ], [ 105.3252, 21.2047 ], [ 105.3328, 21.2135 ], [ 105.3464, 21.2245 ], [ 105.35, 21.2324 ], [ 105.356, 21.2602 ], [ 105.3567, 21.2781 ], [ 105.3615, 21.2837 ], [ 105.3787, 21.2922 ], [ 105.3868, 21.3015 ], [ 105.394, 21.3033 ], [ 105.4058, 21.2991 ], [ 105.4316, 21.2743 ], [ 105.4437, 21.2697 ], [ 105.4448, 21.2648 ] ] ] ] } },
{ "type": "Feature", "properties": { "name": "Bắc Từ Liêm", "kind": "Quận", "slug": "BacTuLiem" }, "geometry": { "type": "MultiPolygon", "coordinates": [ [ [ [ 105.7676, 21.0472 ], [ 105.7586, 21.0384 ], [ 105.7534, 21.038 ], [ 105.7504, 21.0407 ], [ 105.7371, 21.0454 ], [ 105.7371, 21.0497 ], [ 105.7288, 21.057 ], [ 105.7286, 21.0614 ], [ 105.7209, 21.0696 ], [ 105.7173, 21.0712 ], [ 105.719, 21.0748 ], [ 105.72, 21.0724 ], [ 105.7238, 21.0747 ], [ 105.7235, 21.0766 ], [ 105.7276, 21.0816 ], [ 105.7258, 21.0859 ], [ 105.7267, 21.094 ], [ 105.725, 21.0968 ], [ 105.7261, 21.0992 ], [ 105.7296, 21.0996 ], [ 105.737, 21.1051 ], [ 105.7465, 21.0961 ], [ 105.7538, 21.0927 ], [ 105.7685, 21.0936 ], [ 105.7767, 21.0965 ], [ 105.7952, 21.0983 ], [ 105.7918, 21.0912 ], [ 105.7931, 21.0901 ], [ 105.7939, 21.0808 ], [ 105.7946, 21.0793 ], [ 105.7958, 21.0802 ], [ 105.8011, 21.0784 ], [ 105.8, 21.0738 ], [ 105.8038, 21.0724 ], [ 105.8034, 21.07 ], [ 105.8048, 21.0689 ], [ 105.805, 21.0659 ], [ 105.7966, 21.058 ], [ 105.7999, 21.0553 ], [ 105.7942, 21.0498 ], [ 105.7946, 21.0462 ], [ 105.7908, 21.0462 ], [ 105.79, 21.0482 ], [ 105.7915, 21.0479 ], [ 105.7915, 21.049 ], [ 105.7899, 21.0492 ], [ 105.7893, 21.0519 ], [ 105.7869, 21.0512 ], [ 105.7867, 21.0494 ], [ 105.7881, 21.0466 ], [ 105.7902, 21.0473 ], [ 105.7903, 21.0461 ], [ 105.7864, 21.0461 ], [ 105.7864, 21.0443 ], [ 105.7811, 21.0441 ], [ 105.7815, 21.0496 ], [ 105.774, 21.0479 ], [ 105.7715, 21.0453 ], [ 105.7676, 21.0472 ] ] ] ] } },
{ "type": "Feature", "properties": { "name": "Cầu Giấy", "kind": "Quận", "slug": "CauGiay" }, "geometry": { "type": "MultiPolygon", "coordinates": [ [ [ [ 105.8121, 21.0072 ], [ 105.8047, 21.0085 ], [ 105.7925, 21.0007 ], [ 105.7914, 21.0024 ], [ 105.7927, 21.0032 ], [ 105.7894, 21.0072 ], [ 105.7916, 21.0087 ], [ 105.7902, 21.0104 ], [ 105.7913, 21.0111 ], [ 105.7833, 21.0204 ], [ 105.7839, 21.0292 ], [ 105.7817, 21.029 ], [ 105.7819, 21.0313 ], [ 105.7755, 21.0316 ], [ 105.7728, 21.0346 ], [ 105.7687, 21.036 ], [ 105.7677, 21.0397 ], [ 105.7688, 21.0425 ], [ 105.774, 21.0479 ], [ 105.7815, 21.0496 ], [ 105.7811, 21.0441 ], [ 105.7864, 21.0443 ], [ 105.7864, 21.0461 ], [ 105.7903, 21.0461 ], [ 105.7902, 21.0473 ], [ 105.7881, 21.0466 ], [ 105.7867, 21.0494 ], [ 105.7869, 21.0512 ], [ 105.7893, 21.0519 ], [ 105.7899, 21.0492 ], [ 105.7915, 21.049 ], [ 105.7915, 21.0479 ], [ 105.79, 21.0482 ], [ 105.7908, 21.0462 ], [ 105.7946, 21.0462 ], [ 105.7949, 21.0503 ], [ 105.7982, 21.0477 ], [ 105.8055, 21.053 ], [ 105.806, 21.0557 ], [ 105.8082, 21.0555 ], [ 105.8089, 21.0589 ], [ 105.8091, 21.0524 ], [ 105.8061, 21.0476 ], [ 105.8064, 21.0377 ], [ 105.7976, 21.0245 ], [ 105.8047, 21.0152 ], [ 105.8135, 21.0088 ], [ 105.8121, 21.0072 ] ] ] ] } },
{ "type": "Feature", "properties": { "name": "Chương Mỹ", "kind": "Huyện", "slug": "ChuongMy" }, "geometry": { "type": "MultiPolygon", "coordinates": [ [ [ [ 105.6481, 20.7937 ], [ 105.6306, 20.7935 ], [ 105.6332, 20.7959 ], [ 105.6311, 20.7973 ], [ 105.6346, 20.802 ], [ 105.6326, 20.8031 ], [ 105.6324, 20.8093 ], [ 105.6306, 20.8109 ], [ 105.632, 20.814 ], [ 105.6306, 20.8141 ], [ 105.6305, 20.8159 ], [ 105.6271, 20.8157 ], [ 105.6309, 20.8173 ], [ 105.632, 20.82 ], [ 105.6304, 20.821 ], [ 105.6384, 20.8248 ], [ 105.6404, 20.8226 ], [ 105.6421, 20.8276 ], [ 105.6365, 20.8308 ], [ 105.6352, 20.8332 ], [ 105.6364, 20.8393 ], [ 105.6321, 20.8377 ], [ 105.6321, 20.8321 ], [ 105.6335, 20.8306 ], [ 105.6306, 20.8294 ], [ 105.6261, 20.8326 ], [ 105.6177, 20.8304 ], [ 105.6195, 20.8319 ], [ 105.6162, 20.8318 ], [ 105.6134, 20.836 ], [ 105.6088, 20.8382 ], [ 105.603, 20.8381 ], [ 105.6005, 20.8411 ], [ 105.5963, 20.8417 ], [ 105.598, 20.8338 ], [ 105.5956, 20.831 ], [ 105.5891, 20.8311 ], [ 105.5873, 20.8275 ], [ 105.5882, 20.8207 ], [ 105.5841, 20.8176 ], [ 105.5835, 20.8119 ], [ 105.576, 20.8083 ], [ 105.5655, 20.8063 ], [ 105.5593, 20.8068 ], [ 105.5597, 20.8052 ], [ 105.5574, 20.8038 ], [ 105.558, 20.8052 ], [ 105.5553, 20.806 ], [ 105.5589, 20.8108 ], [ 105.5607, 20.8198 ], [ 105.5646, 20.8218 ], [ 105.5747, 20.8223 ], [ 105.5776, 20.8245 ], [ 105.5797, 20.8268 ], [ 105.5803, 20.8359 ], [ 105.5864, 20.8406 ], [ 105.5853, 20.8426 ], [ 105.5872, 20.8431 ], [ 105.5879, 20.8456 ], [ 105.5856, 20.8451 ], [ 105.5865, 20.8475 ], [ 105.5848, 20.8484 ], [ 105.5847, 20.8579 ], [ 105.5826, 20.8592 ], [ 105.5801, 20.8581 ], [ 105.5784, 20.86 ], [ 105.5794, 20.8613 ], [ 105.5754, 20.8643 ], [ 105.5753, 20.8673 ], [ 105.5716, 20.8687 ], [ 105.5635, 20.8759 ], [ 105.5614, 20.8755 ], [ 105.559, 20.8787 ], [ 105.5601, 20.8794 ], [ 105.5593, 20.8811 ], [ 105.5546, 20.8794 ], [ 105.5529, 20.8826 ], [ 105.5508, 20.8787 ], [ 105.5441, 20.8767 ], [ 105.5432, 20.8817 ], [ 105.5553, 20.8863 ], [ 105.5567, 20.8893 ], [ 105.5593, 20.89 ], [ 105.5614, 20.8972 ], [ 105.5634, 20.8951 ], [ 105.5639, 20.8982 ], [ 105.5683, 20.9019 ], [ 105.5673, 20.9034 ], [ 105.5684, 20.911 ], [ 105.5722, 20.9137 ], [ 105.5793, 20.9155 ], [ 105.5821, 20.9122 ], [ 105.5818, 20.91 ], [ 105.5874, 20.9113 ], [ 105.5884, 20.9131 ], [ 105.5916, 20.9131 ], [ 105.5911, 20.9115 ], [ 105.5926, 20.9112 ], [ 105.5936, 20.9137 ], [ 105.5973, 20.913 ], [ 105.5976, 20.9182 ], [ 105.6022, 20.9186 ], [ 105.601, 20.921 ], [ 105.602, 20.9227 ], [ 105.6148, 20.9261 ], [ 105.6153, 20.9285 ], [ 105.6125, 20.9318 ], [ 105.6146, 20.9333 ], [ 105.617, 20.9304 ], [ 105.6186, 20.9305 ], [ 105.6202, 20.9329 ], [ 105.618, 20.9364 ], [ 105.6234, 20.9383 ], [ 105.6222, 20.9398 ], [ 105.6259, 20.9411 ], [ 105.6327, 20.9497 ], [ 105.6337, 20.9549 ], [ 105.6385, 20.9541 ], [ 105.6383, 20.9529 ], [ 105.6427, 20.9541 ], [ 105.6451, 20.951 ], [ 105.6523, 20.9515 ], [ 105.6628, 20.9489 ], [ 105.6785, 20.9507 ], [ 105.6799, 20.9541 ], [ 105.6831, 20.9553 ], [ 105.6827, 20.9579 ], [ 105.6865, 20.9586 ], [ 105.6862, 20.9612 ], [ 105.6923, 20.9616 ], [ 105.6951, 20.9647 ], [ 105.6935, 20.9571 ], [ 105.6944, 20.9553 ], [ 105.7046, 20.9578 ], [ 105.7072, 20.9563 ], [ 105.7092, 20.9579 ], [ 105.7121, 20.9553 ], [ 105.716, 20.9557 ], [ 105.7253, 20.9515 ], [ 105.7138, 20.9448 ], [ 105.7112, 20.9393 ], [ 105.7145, 20.9354 ], [ 105.7186, 20.9344 ], [ 105.7218, 20.9358 ], [ 105.7237, 20.9404 ], [ 105.7252, 20.94 ], [ 105.7294, 20.9306 ], [ 105.726, 20.9293 ], [ 105.7246, 20.9312 ], [ 105.7103, 20.9353 ], [ 105.7068, 20.9339 ], [ 105.7057, 20.9307 ], [ 105.7076, 20.9289 ], [ 105.7191, 20.9277 ], [ 105.7272, 20.9245 ], [ 105.7256, 20.9189 ], [ 105.7236, 20.9177 ], [ 105.7347, 20.9108 ], [ 105.7304, 20.9072 ], [ 105.7251, 20.8983 ], [ 105.7268, 20.8971 ], [ 105.7269, 20.8933 ], [ 105.7306, 20.8939 ], [ 105.7359, 20.8923 ], [ 105.7391, 20.8864 ], [ 105.7376, 20.8752 ], [ 105.7344, 20.873 ], [ 105.7296, 20.876 ], [ 105.7287, 20.872 ], [ 105.7336, 20.8652 ], [ 105.7417, 20.8593 ], [ 105.7512, 20.8557 ], [ 105.7564, 20.8507 ], [ 105.7555, 20.848 ], [ 105.7364, 20.8451 ], [ 105.7338, 20.8406 ], [ 105.7392, 20.8368 ], [ 105.7608, 20.8371 ], [ 105.7612, 20.8347 ], [ 105.7544, 20.8266 ], [ 105.7527, 20.8208 ], [ 105.7553, 20.8137 ], [ 105.7439, 20.8052 ], [ 105.735, 20.8091 ], [ 105.7258, 20.8075 ], [ 105.7093, 20.8097 ], [ 105.7099, 20.8138 ], [ 105.7068, 20.8246 ], [ 105.7105, 20.8266 ], [ 105.7097, 20.83 ], [ 105.7072, 20.8298 ], [ 105.697, 20.8284 ], [ 105.6965, 20.8249 ], [ 105.6993, 20.8191 ], [ 105.6974, 20.8158 ], [ 105.6952, 20.8159 ], [ 105.6937, 20.8125 ], [ 105.6863, 20.8128 ], [ 105.6861, 20.8141 ], [ 105.6818, 20.8141 ], [ 105.6812, 20.8128 ], [ 105.6781, 20.8147 ], [ 105.6718, 20.8138 ], [ 105.6697, 20.8162 ], [ 105.6694, 20.8143 ], [ 105.6678, 20.8157 ], [ 105.6675, 20.8127 ], [ 105.6635, 20.8152 ], [ 105.6639, 20.8132 ], [ 105.6569, 20.8147 ], [ 105.6485, 20.8142 ], [ 105.6507, 20.7941 ], [ 105.6481, 20.7937 ] ] ] ] } },
{ "type": "Feature", "properties": { "name": "Đan Phượng", "kind": "Huyện", "slug": "DanPhuong" }, "geometry": { "type": "MultiPolygon", "coordinates": [ [ [ [ 105.7238, 21.0747 ], [ 105.72, 21.0724 ], [ 105.719, 21.0748 ], [ 105.7173, 21.0717 ], [ 105.709, 21.074 ], [ 105.7082, 21.0717 ], [ 105.7051, 21.0713 ], [ 105.6984, 21.0749 ], [ 105.7016, 21.0805 ], [ 105.6973, 21.0833 ], [ 105.6967, 21.0865 ], [ 105.6913, 21.0873 ], [ 105.6873, 21.0901 ], [ 105.6802, 21.0845 ], [ 105.6778, 21.0844 ], [ 105.6776, 21.0815 ], [ 105.6798, 21.0809 ], [ 105.6754, 21.0768 ], [ 105.6767, 21.0752 ], [ 105.6721, 21.0719 ], [ 105.6722, 21.07 ], [ 105.6668, 21.0726 ], [ 105.6642, 21.0704 ], [ 105.6642, 21.0679 ], [ 105.6667, 21.0675 ], [ 105.6636, 21.0655 ], [ 105.6595, 21.072 ], [ 105.6527, 21.0686 ], [ 105.6476, 21.0692 ], [ 105.6456, 21.072 ], [ 105.6436, 21.0829 ], [ 105.6471, 21.0898 ], [ 105.6467, 21.0918 ], [ 105.6433, 21.0964 ], [ 105.6345, 21.1005 ], [ 105.6364, 21.107 ], [ 105.6383, 21.1057 ], [ 105.6398, 21.1096 ], [ 105.6368, 21.1118 ], [ 105.6304, 21.1132 ], [ 105.6244, 21.1187 ], [ 105.6306, 21.1251 ], [ 105.6234, 21.1344 ], [ 105.628, 21.1454 ], [ 105.6258, 21.1755 ], [ 105.6314, 21.1713 ], [ 105.6447, 21.1557 ], [ 105.6611, 21.148 ], [ 105.6851, 21.1463 ], [ 105.7105, 21.1355 ], [ 105.7147, 21.1298 ], [ 105.7221, 21.1327 ], [ 105.7302, 21.1263 ], [ 105.7404, 21.108 ], [ 105.7296, 21.0996 ], [ 105.7261, 21.0992 ], [ 105.725, 21.0968 ], [ 105.7267, 21.094 ], [ 105.7258, 21.0859 ], [ 105.7276, 21.0816 ], [ 105.7235, 21.0766 ], [ 105.7238, 21.0747 ] ] ] ] } },
{ "type": "Feature", "properties": { "name": "Đông Anh", "kind": "Huyện", "slug": "DongAnh" }, "geometry": { "type": "MultiPolygon", "coordinates": [ [ [ [ 105.8417, 21.0812 ], [ 105.8359, 21.0854 ], [ 105.8288, 21.0938 ], [ 105.8056, 21.103 ], [ 105.7952, 21.0983 ], [ 105.7767, 21.0965 ], [ 105.7685, 21.0936 ], [ 105.7503, 21.0934 ], [ 105.737, 21.1051 ], [ 105.7404, 21.108 ], [ 105.7351, 21.1154 ], [ 105.7334, 21.122 ], [ 105.7359, 21.1219 ], [ 105.7355, 21.124 ], [ 105.7388, 21.1256 ], [ 105.7384, 21.1284 ], [ 105.7411, 21.1288 ], [ 105.7421, 21.1328 ], [ 105.7434, 21.1318 ], [ 105.7442, 21.1343 ], [ 105.746, 21.1339 ], [ 105.7479, 21.1381 ], [ 105.7498, 21.1371 ], [ 105.7509, 21.1324 ], [ 105.7533, 21.1316 ], [ 105.7528, 21.1349 ], [ 105.7662, 21.1357 ], [ 105.7737, 21.1434 ], [ 105.7712, 21.1476 ], [ 105.7701, 21.1695 ], [ 105.7713, 21.1698 ], [ 105.7719, 21.1782 ], [ 105.7755, 21.179 ], [ 105.7837, 21.1774 ], [ 105.785, 21.1795 ], [ 105.7905, 21.1801 ], [ 105.7898, 21.1821 ], [ 105.792, 21.186 ], [ 105.7894, 21.1881 ], [ 105.7905, 21.1906 ], [ 105.7948, 21.1926 ], [ 105.7999, 21.1876 ], [ 105.8022, 21.1876 ], [ 105.8082, 21.1908 ], [ 105.8121, 21.1909 ], [ 105.8154, 21.1874 ], [ 105.8128, 21.185 ], [ 105.8163, 21.1842 ], [ 105.8286, 21.1884 ], [ 105.835, 21.1863 ], [ 105.8405, 21.1905 ], [ 105.8453, 21.1888 ], [ 105.8493, 21.19 ], [ 105.8591, 21.1951 ], [ 105.8631, 21.2 ], [ 105.8668, 21.2007 ], [ 105.867, 21.1982 ], [ 105.8689, 21.1975 ], [ 105.8723, 21.1988 ], [ 105.8716, 21.2065 ], [ 105.875, 21.202 ], [ 105.8872, 21.2058 ], [ 105.8919, 21.2024 ], [ 105.8861, 21.1987 ], [ 105.8823, 21.1896 ], [ 105.8763, 21.1887 ], [ 105.8768, 21.1868 ], [ 105.8867, 21.1901 ], [ 105.8893, 21.1854 ], [ 105.8984, 21.183 ], [ 105.8964, 21.177 ], [ 105.9014, 21.1781 ], [ 105.9004, 21.1821 ], [ 105.9054, 21.1829 ], [ 105.9071, 21.1924 ], [ 105.9122, 21.1923 ], [ 105.9124, 21.1902 ], [ 105.916, 21.1888 ], [ 105.9152, 21.1873 ], [ 105.9237, 21.1827 ], [ 105.9202, 21.1783 ], [ 105.9216, 21.177 ], [ 105.9212, 21.1737 ], [ 105.9181, 21.1736 ], [ 105.9182, 21.1716 ], [ 105.9169, 21.1716 ], [ 105.9193, 21.1632 ], [ 105.9229, 21.1628 ], [ 105.9195, 21.1554 ], [ 105.9234, 21.1473 ], [ 105.9256, 21.147 ], [ 105.9264, 21.1445 ], [ 105.9251, 21.1416 ], [ 105.9263, 21.1403 ], [ 105.9238, 21.1382 ], [ 105.9252, 21.1345 ], [ 105.9229, 21.1339 ], [ 105.9219, 21.1354 ], [ 105.9178, 21.132 ], [ 105.9193, 21.1299 ], [ 105.9128, 21.1265 ], [ 105.9156, 21.1221 ], [ 105.9156, 21.119 ], [ 105.9098, 21.1174 ], [ 105.9055, 21.1141 ], [ 105.9015, 21.1053 ], [ 105.9003, 21.1065 ], [ 105.8992, 21.1009 ], [ 105.8979, 21.1011 ], [ 105.8964, 21.0983 ], [ 105.9043, 21.0893 ], [ 105.9058, 21.0898 ], [ 105.9027, 21.0786 ], [ 105.8937, 21.0793 ], [ 105.8865, 21.0768 ], [ 105.8716, 21.0679 ], [ 105.8648, 21.0665 ], [ 105.8456, 21.0801 ], [ 105.8417, 21.0812 ] ] ] ] } },
{ "type": "Feature", "properties": { "name": "Đống Đa", "kind": "Quận", "slug": "DongDa" }, "geometry": { "type": "MultiPolygon", "coordinates": [ [ [ [ 105.8414, 21.0137 ], [ 105.8413, 21.0004 ], [ 105.8427, 20.9973 ], [ 105.8202, 21.0031 ], [ 105.8181, 21.0016 ], [ 105.814, 21.0085 ], [ 105.803, 21.0172 ], [ 105.7976, 21.0245 ], [ 105.7982, 21.0265 ], [ 105.8014, 21.0302 ], [ 105.8066, 21.0274 ], [ 105.8069, 21.0258 ], [ 105.8103, 21.0262 ], [ 105.812, 21.0215 ], [ 105.8106, 21.0187 ], [ 105.816, 21.0161 ], [ 105.8193, 21.0191 ], [ 105.8211, 21.0232 ], [ 105.8198, 21.0234 ], [ 105.8288, 21.032 ], [ 105.8303, 21.0321 ], [ 105.8297, 21.0302 ], [ 105.8322, 21.0315 ], [ 105.8416, 21.0288 ], [ 105.8414, 21.0137 ] ] ] ] } },
{ "type": "Feature", "properties": { "name": "Gia Lâm", "kind": "Huyện", "slug": "GiaLam" }, "geometry": { "type": "MultiPolygon", "coordinates": [ [ [ [ 105.9642, 20.9857 ], [ 105.9656, 20.985 ], [ 105.9623, 20.9815 ], [ 105.9635, 20.9802 ], [ 105.9618, 20.9759 ], [ 105.9652, 20.9725 ], [ 105.9645, 20.9634 ], [ 105.9606, 20.9636 ], [ 105.9591, 20.966 ], [ 105.9566, 20.966 ], [ 105.9568, 20.9675 ], [ 105.955, 20.9662 ], [ 105.9552, 20.9681 ], [ 105.9488, 20.9676 ], [ 105.9486, 20.9695 ], [ 105.9386, 20.9677 ], [ 105.9384, 20.9694 ], [ 105.9323, 20.9735 ], [ 105.9302, 20.9725 ], [ 105.9245, 20.9757 ], [ 105.9232, 20.9746 ], [ 105.9158, 20.9751 ], [ 105.9089, 20.9625 ], [ 105.9036, 20.9472 ], [ 105.9152, 20.9371 ], [ 105.9091, 20.9265 ], [ 105.8982, 20.929 ], [ 105.8837, 20.9292 ], [ 105.8805, 20.9312 ], [ 105.8832, 20.9409 ], [ 105.9029, 20.9678 ], [ 105.9095, 20.9811 ], [ 105.9087, 20.9861 ], [ 105.9007, 20.9943 ], [ 105.9046, 21.0008 ], [ 105.9038, 21.0023 ], [ 105.9101, 21.0049 ], [ 105.9145, 21.002 ], [ 105.9206, 21.0044 ], [ 105.9199, 21.0119 ], [ 105.9226, 21.0121 ], [ 105.9222, 21.0141 ], [ 105.9241, 21.0144 ], [ 105.9229, 21.0168 ], [ 105.9261, 21.0173 ], [ 105.9259, 21.0198 ], [ 105.9379, 21.0211 ], [ 105.9347, 21.0225 ], [ 105.9349, 21.0247 ], [ 105.9272, 21.0257 ], [ 105.938, 21.0401 ], [ 105.9278, 21.0677 ], [ 105.9246, 21.0719 ], [ 105.9186, 21.0759 ], [ 105.9027, 21.0786 ], [ 105.9058, 21.0898 ], [ 105.9043, 21.0893 ], [ 105.8964, 21.0983 ], [ 105.8979, 21.1011 ], [ 105.8992, 21.1009 ], [ 105.9003, 21.1065 ], [ 105.9015, 21.1053 ], [ 105.9055, 21.1141 ], [ 105.9098, 21.1174 ], [ 105.9156, 21.119 ], [ 105.9215, 21.1186 ], [ 105.9226, 21.1215 ], [ 105.9242, 21.1206 ], [ 105.9214, 21.1167 ], [ 105.9272, 21.1118 ], [ 105.9294, 21.1126 ], [ 105.9309, 21.1088 ], [ 105.9342, 21.1059 ], [ 105.9342, 21.1029 ], [ 105.9364, 21.1016 ], [ 105.9346, 21.0966 ], [ 105.9409, 21.089 ], [ 105.9397, 21.0879 ], [ 105.9402, 21.0834 ], [ 105.9579, 21.0913 ], [ 105.9599, 21.0883 ], [ 105.962, 21.0779 ], [ 105.9689, 21.0736 ], [ 105.9684, 21.0721 ], [ 105.9936, 21.069 ], [ 105.9995, 21.0745 ], [ 106.0012, 21.0691 ], [ 106.0067, 21.0631 ], [ 106.0091, 21.0637 ], [ 106.0098, 21.0621 ], [ 106.0071, 21.0577 ], [ 106.0082, 21.0555 ], [ 106.0101, 21.0572 ], [ 106.0144, 21.0559 ], [ 106.0138, 21.0537 ], [ 106.0154, 21.0528 ], [ 106.014, 21.0509 ], [ 106.02, 21.0475 ], [ 106.0201, 21.0414 ], [ 106.0165, 21.0344 ], [ 106.0129, 21.0304 ], [ 106.0065, 21.0289 ], [ 106.0095, 21.0243 ], [ 106.0046, 21.022 ], [ 106.0037, 21.0171 ], [ 106.0062, 21.0151 ], [ 106.0045, 21.0117 ], [ 106.0097, 21.0124 ], [ 106.0104, 21.0108 ], [ 106.0085, 21.0082 ], [ 105.9991, 21.0066 ], [ 106.0012, 21.0003 ], [ 105.9999, 20.9993 ], [ 105.9946, 21.0014 ], [ 105.9852, 20.9968 ], [ 105.9777, 20.9994 ], [ 105.9724, 20.9967 ], [ 105.9712, 20.9952 ], [ 105.9724, 20.9897 ], [ 105.9692, 20.9886 ], [ 105.967, 20.991 ], [ 105.9646, 20.9905 ], [ 105.9618, 20.9883 ], [ 105.9642, 20.9857 ] ] ] ] } },
{ "type": "Feature", "properties": { "name": "Hà Đông", "kind": "Quận", "slug": "HaDong" }, "geometry": { "type": "MultiPolygon", "coordinates": [ [ [ [ 105.7191, 20.9277 ], [ 105.7076, 20.9289 ], [ 105.7059, 20.9328 ], [ 105.7129, 20.9352 ], [ 105.7246, 20.9312 ], [ 105.726, 20.9293 ], [ 105.7294, 20.9306 ], [ 105.7252, 20.94 ], [ 105.7237, 20.9404 ], [ 105.7218, 20.9358 ], [ 105.7186, 20.9344 ], [ 105.7122, 20.9373 ], [ 105.7115, 20.9418 ], [ 105.7138, 20.9448 ], [ 105.7253, 20.9515 ], [ 105.7249, 20.9554 ], [ 105.7303, 20.9609 ], [ 105.7314, 20.9596 ], [ 105.7388, 20.9637 ], [ 105.7394, 20.9626 ], [ 105.7429, 20.9639 ], [ 105.7389, 20.9704 ], [ 105.7412, 20.9738 ], [ 105.7405, 20.9815 ], [ 105.7418, 20.9845 ], [ 105.7352, 20.9862 ], [ 105.7328, 20.9907 ], [ 105.7307, 20.9905 ], [ 105.73, 20.9917 ], [ 105.7316, 20.9932 ], [ 105.7299, 20.9938 ], [ 105.7304, 20.9953 ], [ 105.7378, 20.9966 ], [ 105.7404, 20.9946 ], [ 105.7442, 20.9955 ], [ 105.7461, 20.9933 ], [ 105.7557, 20.9897 ], [ 105.7582, 20.9852 ], [ 105.7578, 20.9812 ], [ 105.7592, 20.9818 ], [ 105.762, 20.9797 ], [ 105.7642, 20.9801 ], [ 105.7659, 20.9845 ], [ 105.7673, 20.9834 ], [ 105.7716, 20.9859 ], [ 105.7754, 20.986 ], [ 105.778, 20.9841 ], [ 105.7816, 20.9886 ], [ 105.7839, 20.987 ], [ 105.7844, 20.9889 ], [ 105.7866, 20.9887 ], [ 105.788, 20.9861 ], [ 105.7841, 20.9866 ], [ 105.7869, 20.9856 ], [ 105.7932, 20.9844 ], [ 105.7955, 20.986 ], [ 105.7967, 20.9834 ], [ 105.7948, 20.9808 ], [ 105.7972, 20.9781 ], [ 105.7986, 20.9783 ], [ 105.7992, 20.9753 ], [ 105.7937, 20.9738 ], [ 105.7937, 20.9712 ], [ 105.7906, 20.969 ], [ 105.7931, 20.9676 ], [ 105.7919, 20.9657 ], [ 105.7928, 20.9643 ], [ 105.8043, 20.959 ], [ 105.8021, 20.957 ], [ 105.8002, 20.9583 ], [ 105.7949, 20.9549 ], [ 105.7918, 20.9425 ], [ 105.7885, 20.9421 ], [ 105.7882, 20.941 ], [ 105.7898, 20.9411 ], [ 105.7892, 20.9389 ], [ 105.7857, 20.9392 ], [ 105.7859, 20.9346 ], [ 105.7839, 20.9311 ], [ 105.7758, 20.9292 ], [ 105.7765, 20.9274 ], [ 105.7671, 20.9229 ], [ 105.7601, 20.9284 ], [ 105.7622, 20.9299 ], [ 105.7576, 20.9328 ], [ 105.7578, 20.9306 ], [ 105.7503, 20.9302 ], [ 105.7489, 20.9263 ], [ 105.7507, 20.9259 ], [ 105.7513, 20.9233 ], [ 105.7506, 20.9208 ], [ 105.7485, 20.9205 ], [ 105.7494, 20.9166 ], [ 105.7419, 20.9154 ], [ 105.7408, 20.9126 ], [ 105.7369, 20.9135 ], [ 105.7347, 20.9108 ], [ 105.7236, 20.9177 ], [ 105.7256, 20.9189 ], [ 105.7272, 20.9245 ], [ 105.7191, 20.9277 ] ] ] ] } },
{ "type": "Feature", "properties": { "name": "Hai Bà Trưng", "kind": "Quận", "slug": "HaiBaTrung" }, "geometry": { "type": "MultiPolygon", "coordinates": [ [ [ [ 105.8504, 20.993 ], [ 105.8515, 20.9924 ], [ 105.8506, 20.99 ], [ 105.846, 20.9916 ], [ 105.8443, 20.994 ], [ 105.8412, 20.992 ], [ 105.8428, 20.9954 ], [ 105.8413, 21.0004 ], [ 105.8415, 21.0212 ], [ 105.8513, 21.0183 ], [ 105.8678, 21.0199 ], [ 105.87, 21.011 ], [ 105.875, 21.0053 ], [ 105.8831, 21.0027 ], [ 105.8795, 21.0007 ], [ 105.8754, 21.0022 ], [ 105.8786, 21.0001 ], [ 105.878, 20.9972 ], [ 105.8758, 20.9971 ], [ 105.8759, 20.9943 ], [ 105.874, 20.9943 ], [ 105.8737, 20.9927 ], [ 105.8659, 20.993 ], [ 105.8659, 20.9946 ], [ 105.8623, 20.9961 ], [ 105.8626, 20.9928 ], [ 105.8612, 20.9927 ], [ 105.8608, 20.9957 ], [ 105.8587, 20.9953 ], [ 105.858, 20.9932 ], [ 105.852, 20.9942 ], [ 105.8504, 20.993 ] ] ] ] } },
{ "type": "Feature", "properties": { "name": "Hoài Đức", "kind": "Huyện", "slug": "HoaiDuc" }, "geometry": { "type": "MultiPolygon", "coordinates": [ [ [ [ 105.7429, 20.9639 ], [ 105.7394, 20.9626 ], [ 105.7388, 20.9637 ], [ 105.7314, 20.9596 ], [ 105.7303, 20.9609 ], [ 105.7249, 20.9554 ], [ 105.715, 20.9631 ], [ 105.713, 20.969 ], [ 105.7093, 20.9727 ], [ 105.7053, 20.9736 ], [ 105.6991, 20.978 ], [ 105.6936, 20.9775 ], [ 105.6891, 20.9744 ], [ 105.687, 20.9697 ], [ 105.6847, 20.9696 ], [ 105.6838, 20.9704 ], [ 105.6867, 20.9748 ], [ 105.6758, 20.9861 ], [ 105.6744, 20.9866 ], [ 105.6677, 20.9821 ], [ 105.6649, 20.983 ], [ 105.6673, 20.995 ], [ 105.663, 21.0062 ], [ 105.6663, 21.0092 ], [ 105.6766, 21.0092 ], [ 105.6771, 21.019 ], [ 105.6686, 21.0239 ], [ 105.6673, 21.0305 ], [ 105.665, 21.0315 ], [ 105.6651, 21.0333 ], [ 105.6545, 21.0375 ], [ 105.6552, 21.0394 ], [ 105.6533, 21.0394 ], [ 105.6528, 21.0422 ], [ 105.6494, 21.0454 ], [ 105.648, 21.0585 ], [ 105.6458, 21.0627 ], [ 105.6474, 21.0652 ], [ 105.6496, 21.065 ], [ 105.6555, 21.06 ], [ 105.6594, 21.0587 ], [ 105.6631, 21.0596 ], [ 105.6647, 21.0627 ], [ 105.6636, 21.0655 ], [ 105.6667, 21.0675 ], [ 105.6642, 21.0679 ], [ 105.6642, 21.0704 ], [ 105.6668, 21.0726 ], [ 105.6727, 21.0703 ], [ 105.6721, 21.0719 ], [ 105.6767, 21.0752 ], [ 105.6754, 21.0768 ], [ 105.6798, 21.0809 ], [ 105.6776, 21.0815 ], [ 105.6778, 21.0844 ], [ 105.6802, 21.0845 ], [ 105.6873, 21.0901 ], [ 105.6913, 21.0873 ], [ 105.6967, 21.0865 ], [ 105.6973, 21.0833 ], [ 105.7016, 21.0805 ], [ 105.6984, 21.0749 ], [ 105.7051, 21.0713 ], [ 105.7082, 21.0717 ], [ 105.709, 21.074 ], [ 105.7173, 21.0717 ], [ 105.7286, 21.0614 ], [ 105.7295, 21.0566 ], [ 105.7266, 21.053 ], [ 105.7287, 21.0505 ], [ 105.728, 21.0484 ], [ 105.7326, 21.0454 ], [ 105.7336, 21.0382 ], [ 105.7385, 21.0365 ], [ 105.739, 21.035 ], [ 105.7388, 21.0318 ], [ 105.7371, 21.0309 ], [ 105.7387, 21.0229 ], [ 105.737, 21.0233 ], [ 105.7357, 21.0217 ], [ 105.7345, 21.0228 ], [ 105.7298, 21.018 ], [ 105.734, 21.0154 ], [ 105.7324, 21.0119 ], [ 105.733, 21.0081 ], [ 105.7358, 21.0083 ], [ 105.7337, 21.0043 ], [ 105.7353, 20.9966 ], [ 105.7304, 20.9953 ], [ 105.7299, 20.9938 ], [ 105.7316, 20.9932 ], [ 105.73, 20.9917 ], [ 105.7328, 20.9907 ], [ 105.7352, 20.9862 ], [ 105.7418, 20.9845 ], [ 105.7405, 20.9815 ], [ 105.7412, 20.9738 ], [ 105.7389, 20.9704 ], [ 105.7429, 20.9639 ] ] ] ] } },
{ "type": "Feature", "properties": { "name": "Hoàn Kiếm", "kind": "Quận", "slug": "HoanKiem" }, "geometry": { "type": "MultiPolygon", "coordinates": [ [ [ [ 105.8416, 21.0288 ], [ 105.844, 21.0301 ], [ 105.8446, 21.0394 ], [ 105.8564, 21.0424 ], [ 105.8646, 21.0303 ], [ 105.8678, 21.0199 ], [ 105.8547, 21.0182 ], [ 105.8409, 21.0211 ], [ 105.8416, 21.0288 ] ] ] ] } },
{ "type": "Feature", "properties": { "name": "Hoàng Mai", "kind": "Quận", "slug": "HoangMai" }, "geometry": { "type": "MultiPolygon", "coordinates": [ [ [ [ 105.8442, 20.9511 ], [ 105.8427, 20.9582 ], [ 105.8387, 20.9571 ], [ 105.836, 20.9589 ], [ 105.8338, 20.9552 ], [ 105.8315, 20.9554 ], [ 105.8309, 20.953 ], [ 105.8164, 20.9599 ], [ 105.825, 20.9707 ], [ 105.8196, 20.9724 ], [ 105.8156, 20.9702 ], [ 105.8075, 20.9739 ], [ 105.8098, 20.9827 ], [ 105.8135, 20.9807 ], [ 105.8157, 20.9833 ], [ 105.8184, 20.9807 ], [ 105.8187, 20.9844 ], [ 105.8231, 20.9869 ], [ 105.8285, 20.9936 ], [ 105.8301, 20.9935 ], [ 105.8375, 20.9839 ], [ 105.8411, 20.9854 ], [ 105.8412, 20.992 ], [ 105.8443, 20.994 ], [ 105.846, 20.9916 ], [ 105.8506, 20.99 ], [ 105.8515, 20.9924 ], [ 105.8504, 20.993 ], [ 105.852, 20.9942 ], [ 105.858, 20.9932 ], [ 105.8587, 20.9953 ], [ 105.8608, 20.9957 ], [ 105.8612, 20.9927 ], [ 105.8626, 20.9928 ], [ 105.8623, 20.9961 ], [ 105.8659, 20.9946 ], [ 105.8659, 20.993 ], [ 105.8737, 20.9927 ], [ 105.874, 20.9943 ], [ 105.8759, 20.9943 ], [ 105.8758, 20.9971 ], [ 105.878, 20.9972 ], [ 105.8786, 21.0001 ], [ 105.8754, 21.0022 ], [ 105.8795, 21.0007 ], [ 105.8831, 21.0027 ], [ 105.8941, 20.999 ], [ 105.9087, 20.9861 ], [ 105.9095, 20.9811 ], [ 105.9029, 20.9678 ], [ 105.8864, 20.9452 ], [ 105.8732, 20.9551 ], [ 105.8699, 20.9504 ], [ 105.8663, 20.9509 ], [ 105.86, 20.9537 ], [ 105.8585, 20.9573 ], [ 105.8442, 20.9511 ] ] ] ] } },
{ "type": "Feature", "properties": { "name": "Long Biên", "kind": "Quận", "slug": "LongBien" }, "geometry": { "type": "MultiPolygon", "coordinates": [ [ [ [ 105.9046, 21.0008 ], [ 105.9007, 20.9943 ], [ 105.8941, 20.999 ], [ 105.875, 21.0053 ], [ 105.87, 21.011 ], [ 105.8646, 21.0303 ], [ 105.8477, 21.0581 ], [ 105.8417, 21.0812 ], [ 105.8456, 21.0801 ], [ 105.8648, 21.0665 ], [ 105.8716, 21.0679 ], [ 105.8865, 21.0768 ], [ 105.8977, 21.0798 ], [ 105.9186, 21.0759 ], [ 105.9246, 21.0719 ], [ 105.9327, 21.0569 ], [ 105.938, 21.0401 ], [ 105.9272, 21.0257 ], [ 105.9349, 21.0247 ], [ 105.9347, 21.0225 ], [ 105.9379, 21.0211 ], [ 105.9259, 21.0198 ], [ 105.9261, 21.0173 ], [ 105.9229, 21.0168 ], [ 105.9241, 21.0144 ], [ 105.9222, 21.0141 ], [ 105.9226, 21.0121 ], [ 105.9199, 21.0119 ], [ 105.9206, 21.0044 ], [ 105.9145, 21.002 ], [ 105.9101, 21.0049 ], [ 105.9038, 21.0023 ], [ 105.9046, 21.0008 ] ] ] ] } },
{ "type": "Feature", "properties": { "name": "Mê Linh", "kind": "Huyện", "slug": "MeLinh" }, "geometry": { "type": "MultiPolygon", "coordinates": [ [ [ [ 105.7221, 21.1327 ], [ 105.7147, 21.1298 ], [ 105.7105, 21.1355 ], [ 105.6851, 21.1463 ], [ 105.6611, 21.148 ], [ 105.6447, 21.1557 ], [ 105.6314, 21.1713 ], [ 105.6258, 21.1755 ], [ 105.6267, 21.1778 ], [ 105.6244, 21.1807 ], [ 105.6281, 21.1807 ], [ 105.6298, 21.1841 ], [ 105.6249, 21.1882 ], [ 105.6241, 21.1938 ], [ 105.6217, 21.1948 ], [ 105.6228, 21.1999 ], [ 105.6166, 21.2025 ], [ 105.6152, 21.2076 ], [ 105.6169, 21.2087 ], [ 105.6212, 21.2059 ], [ 105.6291, 21.2107 ], [ 105.6387, 21.2073 ], [ 105.6395, 21.2118 ], [ 105.6368, 21.214 ], [ 105.6358, 21.2173 ], [ 105.6451, 21.2156 ], [ 105.6582, 21.2204 ], [ 105.659, 21.2232 ], [ 105.6545, 21.2276 ], [ 105.6517, 21.2258 ], [ 105.6454, 21.2271 ], [ 105.6443, 21.2337 ], [ 105.6519, 21.2381 ], [ 105.6568, 21.2347 ], [ 105.6617, 21.235 ], [ 105.667, 21.2396 ], [ 105.6688, 21.2332 ], [ 105.6716, 21.2332 ], [ 105.6737, 21.2366 ], [ 105.6749, 21.2362 ], [ 105.6754, 21.2342 ], [ 105.6714, 21.2304 ], [ 105.6766, 21.2269 ], [ 105.6793, 21.2292 ], [ 105.6814, 21.2347 ], [ 105.6853, 21.2354 ], [ 105.6887, 21.2342 ], [ 105.6887, 21.2325 ], [ 105.6835, 21.2318 ], [ 105.6826, 21.2302 ], [ 105.6873, 21.2305 ], [ 105.6861, 21.2263 ], [ 105.6884, 21.222 ], [ 105.6903, 21.2198 ], [ 105.6935, 21.2215 ], [ 105.6982, 21.2133 ], [ 105.6974, 21.2186 ], [ 105.6986, 21.2199 ], [ 105.7007, 21.2206 ], [ 105.7019, 21.2186 ], [ 105.7033, 21.2213 ], [ 105.7092, 21.2198 ], [ 105.7156, 21.2247 ], [ 105.7187, 21.2235 ], [ 105.7197, 21.2277 ], [ 105.7185, 21.2288 ], [ 105.7197, 21.23 ], [ 105.7243, 21.2253 ], [ 105.7351, 21.2329 ], [ 105.7501, 21.228 ], [ 105.7538, 21.222 ], [ 105.7581, 21.2229 ], [ 105.7605, 21.2147 ], [ 105.7634, 21.2131 ], [ 105.7689, 21.2142 ], [ 105.7704, 21.2067 ], [ 105.7713, 21.2087 ], [ 105.7784, 21.1999 ], [ 105.7851, 21.1983 ], [ 105.7889, 21.1955 ], [ 105.7905, 21.1906 ], [ 105.7894, 21.1881 ], [ 105.792, 21.186 ], [ 105.7898, 21.1821 ], [ 105.7905, 21.1801 ], [ 105.785, 21.1795 ], [ 105.7837, 21.1774 ], [ 105.7755, 21.179 ], [ 105.7719, 21.1782 ], [ 105.7713, 21.1698 ], [ 105.7701, 21.1695 ], [ 105.7712, 21.1476 ], [ 105.7737, 21.1434 ], [ 105.7662, 21.1357 ], [ 105.7528, 21.1349 ], [ 105.7533, 21.1316 ], [ 105.7509, 21.1324 ], [ 105.7498, 21.1371 ], [ 105.7479, 21.1381 ], [ 105.746, 21.1339 ], [ 105.7442, 21.1343 ], [ 105.7434, 21.1318 ], [ 105.7421, 21.1328 ], [ 105.7411, 21.1288 ], [ 105.7384, 21.1284 ], [ 105.7388, 21.1256 ], [ 105.7355, 21.124 ], [ 105.7359, 21.1219 ], [ 105.7322, 21.1221 ], [ 105.7302, 21.1263 ], [ 105.7221, 21.1327 ] ] ] ] } },
{ "type": "Feature", "properties": { "name": "Mỹ Đức", "kind": "Huyện", "slug": "MyDuc" }, "geometry": { "type": "MultiPolygon", "coordinates": [ [ [ [ 105.7838, 20.5663 ], [ 105.769, 20.5645 ], [ 105.7652, 20.5755 ], [ 105.7551, 20.5851 ], [ 105.7531, 20.5889 ], [ 105.7475, 20.5921 ], [ 105.744, 20.5983 ], [ 105.7316, 20.6001 ], [ 105.7272, 20.6046 ], [ 105.7217, 20.5961 ], [ 105.7083, 20.5988 ], [ 105.7041, 20.6026 ], [ 105.7056, 20.609 ], [ 105.7013, 20.6215 ], [ 105.6991, 20.6219 ], [ 105.6967, 20.6194 ], [ 105.6917, 20.6221 ], [ 105.6869, 20.6161 ], [ 105.6829, 20.6163 ], [ 105.6821, 20.6183 ], [ 105.677, 20.6161 ], [ 105.6748, 20.6176 ], [ 105.6728, 20.6164 ], [ 105.6662, 20.6179 ], [ 105.6673, 20.6235 ], [ 105.6639, 20.6282 ], [ 105.6659, 20.6299 ], [ 105.6688, 20.629 ], [ 105.6704, 20.632 ], [ 105.6721, 20.6321 ], [ 105.6734, 20.6292 ], [ 105.6775, 20.6298 ], [ 105.6784, 20.6285 ], [ 105.6849, 20.633 ], [ 105.6835, 20.6352 ], [ 105.6868, 20.6378 ], [ 105.6826, 20.6402 ], [ 105.6792, 20.6454 ], [ 105.6813, 20.6523 ], [ 105.6786, 20.6603 ], [ 105.6806, 20.6622 ], [ 105.678, 20.6665 ], [ 105.6796, 20.6696 ], [ 105.6774, 20.6718 ], [ 105.6771, 20.6651 ], [ 105.6752, 20.6636 ], [ 105.6722, 20.668 ], [ 105.6737, 20.6703 ], [ 105.6695, 20.6759 ], [ 105.6696, 20.6796 ], [ 105.6732, 20.6814 ], [ 105.6746, 20.6802 ], [ 105.6768, 20.6828 ], [ 105.6802, 20.6835 ], [ 105.6839, 20.6922 ], [ 105.6823, 20.699 ], [ 105.6773, 20.7026 ], [ 105.6648, 20.7173 ], [ 105.6616, 20.7234 ], [ 105.6665, 20.7341 ], [ 105.6578, 20.7413 ], [ 105.6496, 20.7615 ], [ 105.6481, 20.7937 ], [ 105.6507, 20.7941 ], [ 105.6485, 20.8142 ], [ 105.6569, 20.8147 ], [ 105.6639, 20.8132 ], [ 105.6635, 20.8152 ], [ 105.6675, 20.8127 ], [ 105.6678, 20.8157 ], [ 105.6694, 20.8143 ], [ 105.6697, 20.8162 ], [ 105.6718, 20.8138 ], [ 105.6781, 20.8147 ], [ 105.6812, 20.8128 ], [ 105.6818, 20.8141 ], [ 105.6861, 20.8141 ], [ 105.6863, 20.8128 ], [ 105.6937, 20.8125 ], [ 105.6952, 20.8159 ], [ 105.6974, 20.8158 ], [ 105.6993, 20.8191 ], [ 105.6965, 20.8249 ], [ 105.697, 20.8284 ], [ 105.7097, 20.83 ], [ 105.7105, 20.8266 ], [ 105.7068, 20.8246 ], [ 105.7099, 20.8138 ], [ 105.7054, 20.7985 ], [ 105.7172, 20.7829 ], [ 105.7247, 20.7785 ], [ 105.7263, 20.7727 ], [ 105.7226, 20.7659 ], [ 105.7145, 20.757 ], [ 105.7056, 20.7518 ], [ 105.6977, 20.751 ], [ 105.6971, 20.7428 ], [ 105.6981, 20.7416 ], [ 105.7085, 20.7423 ], [ 105.7298, 20.7376 ], [ 105.732, 20.736 ], [ 105.7336, 20.7302 ], [ 105.7314, 20.7222 ], [ 105.735, 20.7219 ], [ 105.7439, 20.7275 ], [ 105.7554, 20.7287 ], [ 105.7614, 20.7316 ], [ 105.7711, 20.7244 ], [ 105.7709, 20.7228 ], [ 105.766, 20.7216 ], [ 105.7629, 20.7189 ], [ 105.7627, 20.7059 ], [ 105.7609, 20.7019 ], [ 105.7551, 20.6979 ], [ 105.7458, 20.6965 ], [ 105.7429, 20.6943 ], [ 105.7432, 20.6903 ], [ 105.7703, 20.6703 ], [ 105.7834, 20.6585 ], [ 105.7904, 20.6485 ], [ 105.8023, 20.6415 ], [ 105.8036, 20.6375 ], [ 105.8005, 20.6315 ], [ 105.795, 20.6279 ], [ 105.7783, 20.626 ], [ 105.7774, 20.6238 ], [ 105.785, 20.618 ], [ 105.7982, 20.6118 ], [ 105.8034, 20.6127 ], [ 105.8066, 20.6171 ], [ 105.8129, 20.6187 ], [ 105.8116, 20.6154 ], [ 105.806, 20.6108 ], [ 105.8074, 20.6066 ], [ 105.8058, 20.6003 ], [ 105.8011, 20.5927 ], [ 105.8006, 20.5845 ], [ 105.7964, 20.5696 ], [ 105.7951, 20.5676 ], [ 105.7838, 20.5663 ] ] ] ] } },
{ "type": "Feature", "properties": { "name": "Nam Từ Liêm", "kind": "Quận", "slug": "NamTuLiem" }, "geometry": { "type": "MultiPolygon", "coordinates": [ [ [ [ 105.788, 20.9861 ], [ 105.7861, 20.9889 ], [ 105.7844, 20.9889 ], [ 105.7839, 20.987 ], [ 105.7816, 20.9886 ], [ 105.778, 20.9841 ], [ 105.7754, 20.986 ], [ 105.7716, 20.9859 ], [ 105.7673, 20.9834 ], [ 105.7659, 20.9845 ], [ 105.7642, 20.9801 ], [ 105.762, 20.9797 ], [ 105.7592, 20.9818 ], [ 105.7578, 20.9812 ], [ 105.7582, 20.9852 ], [ 105.7557, 20.9897 ], [ 105.7461, 20.9933 ], [ 105.7442, 20.9955 ], [ 105.7404, 20.9946 ], [ 105.7353, 20.9966 ], [ 105.7337, 21.0043 ], [ 105.7358, 21.0083 ], [ 105.733, 21.0081 ], [ 105.7324, 21.0119 ], [ 105.734, 21.0154 ], [ 105.7298, 21.018 ], [ 105.7345, 21.0228 ], [ 105.7357, 21.0217 ], [ 105.737, 21.0233 ], [ 105.7387, 21.0229 ], [ 105.7371, 21.0309 ], [ 105.7388, 21.0318 ], [ 105.739, 21.035 ], [ 105.7385, 21.0365 ], [ 105.7336, 21.0382 ], [ 105.7326, 21.0454 ], [ 105.728, 21.0484 ], [ 105.7287, 21.0505 ], [ 105.7266, 21.053 ], [ 105.7295, 21.0566 ], [ 105.7371, 21.0497 ], [ 105.7371, 21.0454 ], [ 105.7504, 21.0407 ], [ 105.7534, 21.038 ], [ 105.7586, 21.0384 ], [ 105.7676, 21.0472 ], [ 105.7715, 21.0453 ], [ 105.7688, 21.0425 ], [ 105.768, 21.037 ], [ 105.7755, 21.0316 ], [ 105.7819, 21.0313 ], [ 105.7817, 21.029 ], [ 105.7839, 21.0292 ], [ 105.7833, 21.0204 ], [ 105.7913, 21.0111 ], [ 105.7902, 21.0104 ], [ 105.7916, 21.0087 ], [ 105.7894, 21.0072 ], [ 105.7927, 21.0032 ], [ 105.7914, 21.0024 ], [ 105.793, 21.0011 ], [ 105.7923, 20.9994 ], [ 105.7959, 20.9985 ], [ 105.7954, 20.9956 ], [ 105.7967, 20.9952 ], [ 105.7956, 20.9917 ], [ 105.7992, 20.9886 ], [ 105.7932, 20.9844 ], [ 105.7841, 20.9866 ], [ 105.788, 20.9861 ] ] ] ] } },
{ "type": "Feature", "properties": { "name": "Phú Xuyên", "kind": "Huyện", "slug": "PhuXuyen" }, "geometry": { "type": "MultiPolygon", "coordinates": [ [ [ [ 105.9468, 20.6682 ], [ 105.947, 20.676 ], [ 105.9437, 20.682 ], [ 105.9197, 20.6759 ], [ 105.9183, 20.6737 ], [ 105.9054, 20.6684 ], [ 105.9042, 20.6706 ], [ 105.8949, 20.6758 ], [ 105.8931, 20.6788 ], [ 105.8864, 20.6757 ], [ 105.8858, 20.6792 ], [ 105.8836, 20.678 ], [ 105.8826, 20.6854 ], [ 105.8843, 20.6857 ], [ 105.8855, 20.69 ], [ 105.8919, 20.692 ], [ 105.8914, 20.6934 ], [ 105.889, 20.6919 ], [ 105.8876, 20.6965 ], [ 105.8716, 20.706 ], [ 105.8737, 20.71 ], [ 105.8678, 20.7099 ], [ 105.864, 20.7142 ], [ 105.8603, 20.7151 ], [ 105.8604, 20.7189 ], [ 105.8551, 20.7219 ], [ 105.8576, 20.725 ], [ 105.8546, 20.7315 ], [ 105.8499, 20.7329 ], [ 105.8508, 20.7377 ], [ 105.8462, 20.737 ], [ 105.8459, 20.7411 ], [ 105.8443, 20.7418 ], [ 105.8266, 20.7371 ], [ 105.8222, 20.7417 ], [ 105.8207, 20.7392 ], [ 105.8129, 20.7431 ], [ 105.8135, 20.7448 ], [ 105.8114, 20.746 ], [ 105.8102, 20.7445 ], [ 105.8079, 20.7456 ], [ 105.8035, 20.7507 ], [ 105.7937, 20.7494 ], [ 105.7939, 20.759 ], [ 105.7924, 20.7587 ], [ 105.7921, 20.7627 ], [ 105.7963, 20.7617 ], [ 105.7997, 20.771 ], [ 105.8038, 20.7714 ], [ 105.8036, 20.7754 ], [ 105.8056, 20.7757 ], [ 105.8047, 20.7788 ], [ 105.8028, 20.7796 ], [ 105.8067, 20.7802 ], [ 105.8111, 20.7878 ], [ 105.8084, 20.7923 ], [ 105.81, 20.7988 ], [ 105.8139, 20.802 ], [ 105.8187, 20.7941 ], [ 105.8208, 20.7951 ], [ 105.8171, 20.8044 ], [ 105.8238, 20.8065 ], [ 105.8317, 20.8062 ], [ 105.8328, 20.8006 ], [ 105.8342, 20.8006 ], [ 105.8341, 20.7951 ], [ 105.8426, 20.7961 ], [ 105.8531, 20.8019 ], [ 105.87, 20.7968 ], [ 105.8694, 20.7956 ], [ 105.8717, 20.7944 ], [ 105.8684, 20.7898 ], [ 105.877, 20.7849 ], [ 105.878, 20.786 ], [ 105.8819, 20.7836 ], [ 105.8803, 20.7828 ], [ 105.882, 20.7817 ], [ 105.8843, 20.7826 ], [ 105.8849, 20.7806 ], [ 105.887, 20.7813 ], [ 105.8899, 20.7722 ], [ 105.8958, 20.7736 ], [ 105.8968, 20.7723 ], [ 105.8949, 20.7688 ], [ 105.8956, 20.7673 ], [ 105.8913, 20.7639 ], [ 105.8869, 20.756 ], [ 105.8901, 20.7519 ], [ 105.8943, 20.7553 ], [ 105.905, 20.7529 ], [ 105.9063, 20.7565 ], [ 105.9105, 20.7575 ], [ 105.9124, 20.7607 ], [ 105.9194, 20.7639 ], [ 105.9118, 20.7745 ], [ 105.9126, 20.7822 ], [ 105.9133, 20.7868 ], [ 105.9164, 20.7886 ], [ 105.9173, 20.7871 ], [ 105.9232, 20.7909 ], [ 105.9285, 20.7862 ], [ 105.9374, 20.7833 ], [ 105.9575, 20.7801 ], [ 105.9664, 20.7755 ], [ 105.9695, 20.7695 ], [ 105.9677, 20.7505 ], [ 105.9701, 20.7346 ], [ 105.9658, 20.7318 ], [ 105.9657, 20.73 ], [ 105.9624, 20.7272 ], [ 105.962, 20.7234 ], [ 105.9664, 20.71 ], [ 105.9744, 20.6995 ], [ 105.9792, 20.6989 ], [ 105.9918, 20.7039 ], [ 106.0033, 20.7038 ], [ 106.0028, 20.7015 ], [ 105.9958, 20.6975 ], [ 105.9979, 20.6923 ], [ 105.9907, 20.6893 ], [ 105.9921, 20.6857 ], [ 105.9949, 20.6856 ], [ 105.9941, 20.6833 ], [ 105.9975, 20.6784 ], [ 105.9947, 20.6773 ], [ 105.9923, 20.6787 ], [ 105.9945, 20.681 ], [ 105.9932, 20.6821 ], [ 105.9888, 20.6826 ], [ 105.9848, 20.6805 ], [ 105.9784, 20.6737 ], [ 105.9776, 20.6657 ], [ 105.9672, 20.6648 ], [ 105.96, 20.6607 ], [ 105.9571, 20.6566 ], [ 105.958, 20.6508 ], [ 105.9452, 20.6551 ], [ 105.9433, 20.6627 ], [ 105.9468, 20.6682 ] ] ] ] } },
{ "type": "Feature", "properties": { "name": "Phúc Thọ", "kind": "Huyện", "slug": "PhucTho" }, "geometry": { "type": "MultiPolygon", "coordinates": [ [ [ [ 105.6471, 21.0405 ], [ 105.6478, 21.0461 ], [ 105.6431, 21.0408 ], [ 105.6428, 21.0439 ], [ 105.6349, 21.0443 ], [ 105.6308, 21.0511 ], [ 105.6326, 21.0524 ], [ 105.6269, 21.0629 ], [ 105.6165, 21.069 ], [ 105.6158, 21.0681 ], [ 105.611, 21.0728 ], [ 105.6077, 21.0703 ], [ 105.5949, 21.0747 ], [ 105.5932, 21.0784 ], [ 105.5832, 21.0748 ], [ 105.5751, 21.0821 ], [ 105.5767, 21.0923 ], [ 105.5759, 21.0993 ], [ 105.5634, 21.0999 ], [ 105.5576, 21.1018 ], [ 105.5545, 21.096 ], [ 105.55, 21.0968 ], [ 105.5495, 21.0949 ], [ 105.5473, 21.0952 ], [ 105.5461, 21.0936 ], [ 105.5434, 21.0959 ], [ 105.5395, 21.0909 ], [ 105.5322, 21.09 ], [ 105.528, 21.0913 ], [ 105.5272, 21.0893 ], [ 105.5234, 21.089 ], [ 105.5216, 21.0902 ], [ 105.5177, 21.0892 ], [ 105.5171, 21.091 ], [ 105.5144, 21.0903 ], [ 105.5104, 21.0938 ], [ 105.5118, 21.095 ], [ 105.5077, 21.0978 ], [ 105.5073, 21.0963 ], [ 105.5017, 21.0955 ], [ 105.5022, 21.097 ], [ 105.5004, 21.0982 ], [ 105.5036, 21.1 ], [ 105.5055, 21.0993 ], [ 105.5071, 21.1017 ], [ 105.5057, 21.1061 ], [ 105.503, 21.1066 ], [ 105.5019, 21.1096 ], [ 105.5023, 21.1163 ], [ 105.5054, 21.12 ], [ 105.5051, 21.1227 ], [ 105.5093, 21.125 ], [ 105.5114, 21.1243 ], [ 105.5138, 21.1299 ], [ 105.516, 21.1279 ], [ 105.517, 21.13 ], [ 105.5191, 21.1286 ], [ 105.5218, 21.133 ], [ 105.5246, 21.1338 ], [ 105.5223, 21.1356 ], [ 105.5211, 21.1403 ], [ 105.5162, 21.1411 ], [ 105.5171, 21.1512 ], [ 105.5153, 21.1524 ], [ 105.5159, 21.1563 ], [ 105.5336, 21.1542 ], [ 105.5709, 21.1606 ], [ 105.5761, 21.1626 ], [ 105.5759, 21.1644 ], [ 105.6, 21.1696 ], [ 105.605, 21.1745 ], [ 105.6173, 21.1791 ], [ 105.6258, 21.1755 ], [ 105.628, 21.1454 ], [ 105.6234, 21.1344 ], [ 105.6306, 21.1251 ], [ 105.6244, 21.1187 ], [ 105.6304, 21.1132 ], [ 105.6368, 21.1118 ], [ 105.6398, 21.1096 ], [ 105.6383, 21.1057 ], [ 105.6364, 21.107 ], [ 105.6345, 21.1005 ], [ 105.6433, 21.0964 ], [ 105.6467, 21.0918 ], [ 105.6471, 21.0898 ], [ 105.6436, 21.0829 ], [ 105.6456, 21.072 ], [ 105.6476, 21.0692 ], [ 105.6527, 21.0686 ], [ 105.6595, 21.072 ], [ 105.6647, 21.0627 ], [ 105.6631, 21.0596 ], [ 105.6594, 21.0587 ], [ 105.6474, 21.0652 ], [ 105.6461, 21.0606 ], [ 105.648, 21.0585 ], [ 105.6494, 21.0454 ], [ 105.6508, 21.044 ], [ 105.6471, 21.0405 ] ] ] ] } },
{ "type": "Feature", "properties": { "name": "Quốc Oai", "kind": "Huyện", "slug": "QuocOai" }, "geometry": { "type": "MultiPolygon", "coordinates": [ [ [ [ 105.617, 20.9304 ], [ 105.6146, 20.9333 ], [ 105.6125, 20.9318 ], [ 105.6153, 20.9285 ], [ 105.6148, 20.9261 ], [ 105.602, 20.9227 ], [ 105.601, 20.921 ], [ 105.6022, 20.9186 ], [ 105.5976, 20.9182 ], [ 105.5973, 20.913 ], [ 105.5936, 20.9137 ], [ 105.5926, 20.9112 ], [ 105.5911, 20.9115 ], [ 105.5916, 20.9131 ], [ 105.5884, 20.9131 ], [ 105.5874, 20.9113 ], [ 105.5818, 20.91 ], [ 105.5821, 20.9122 ], [ 105.5789, 20.916 ], [ 105.5811, 20.918 ], [ 105.5791, 20.9207 ], [ 105.5822, 20.9199 ], [ 105.5848, 20.9226 ], [ 105.5813, 20.9236 ], [ 105.5805, 20.9287 ], [ 105.5744, 20.9299 ], [ 105.5713, 20.9271 ], [ 105.566, 20.9272 ], [ 105.5608, 20.9246 ], [ 105.5529, 20.9271 ], [ 105.5465, 20.9217 ], [ 105.5385, 20.9276 ], [ 105.5251, 20.9188 ], [ 105.5218, 20.9218 ], [ 105.5125, 20.9223 ], [ 105.5059, 20.9262 ], [ 105.5024, 20.931 ], [ 105.4996, 20.9303 ], [ 105.4905, 20.9341 ], [ 105.4796, 20.9478 ], [ 105.4859, 20.9475 ], [ 105.487, 20.9518 ], [ 105.492, 20.9565 ], [ 105.4914, 20.9619 ], [ 105.5027, 20.9693 ], [ 105.5039, 20.9797 ], [ 105.5122, 20.9802 ], [ 105.5141, 20.9786 ], [ 105.5118, 20.9774 ], [ 105.5196, 20.9738 ], [ 105.5242, 20.9695 ], [ 105.5235, 20.9731 ], [ 105.5268, 20.9737 ], [ 105.5305, 20.9798 ], [ 105.5341, 20.9777 ], [ 105.5358, 20.9785 ], [ 105.5355, 20.9798 ], [ 105.5416, 20.9789 ], [ 105.5487, 20.9838 ], [ 105.549, 20.9869 ], [ 105.5516, 20.9857 ], [ 105.5517, 20.9879 ], [ 105.5561, 20.9908 ], [ 105.5544, 20.9834 ], [ 105.5618, 20.9826 ], [ 105.5668, 20.9791 ], [ 105.5654, 20.9776 ], [ 105.5695, 20.9771 ], [ 105.5722, 20.9745 ], [ 105.5742, 20.9751 ], [ 105.5734, 20.9776 ], [ 105.5762, 20.978 ], [ 105.5747, 20.9828 ], [ 105.5759, 20.9856 ], [ 105.578, 20.9858 ], [ 105.5769, 20.9828 ], [ 105.578, 20.9819 ], [ 105.581, 20.983 ], [ 105.5802, 20.9854 ], [ 105.5825, 20.9904 ], [ 105.5795, 20.9922 ], [ 105.582, 20.9961 ], [ 105.5804, 20.9968 ], [ 105.5807, 21.0012 ], [ 105.5841, 21.0042 ], [ 105.5856, 21.0028 ], [ 105.5926, 21.0038 ], [ 105.5907, 21.005 ], [ 105.5938, 21.0093 ], [ 105.5938, 21.0127 ], [ 105.5955, 21.0132 ], [ 105.5973, 21.0095 ], [ 105.596, 21.0087 ], [ 105.6015, 21.0029 ], [ 105.6067, 21.0045 ], [ 105.6079, 21.0034 ], [ 105.6079, 21.0048 ], [ 105.6151, 21.007 ], [ 105.6172, 21.0046 ], [ 105.6236, 21.0071 ], [ 105.6272, 21.0033 ], [ 105.6312, 21.0097 ], [ 105.6343, 21.0078 ], [ 105.6365, 21.0111 ], [ 105.6397, 21.0096 ], [ 105.6397, 21.0119 ], [ 105.6358, 21.0153 ], [ 105.6331, 21.0132 ], [ 105.6291, 21.0167 ], [ 105.6342, 21.0252 ], [ 105.6307, 21.027 ], [ 105.6334, 21.035 ], [ 105.6324, 21.0369 ], [ 105.6349, 21.0366 ], [ 105.6349, 21.0443 ], [ 105.6428, 21.0439 ], [ 105.6431, 21.0408 ], [ 105.6478, 21.0461 ], [ 105.6471, 21.0405 ], [ 105.6508, 21.044 ], [ 105.6533, 21.0394 ], [ 105.6552, 21.0394 ], [ 105.6545, 21.0375 ], [ 105.6651, 21.0333 ], [ 105.665, 21.0315 ], [ 105.6673, 21.0305 ], [ 105.6686, 21.0239 ], [ 105.6771, 21.019 ], [ 105.6766, 21.0092 ], [ 105.6663, 21.0092 ], [ 105.663, 21.0062 ], [ 105.6673, 20.995 ], [ 105.6649, 20.983 ], [ 105.6677, 20.9821 ], [ 105.6744, 20.9866 ], [ 105.6758, 20.9861 ], [ 105.6867, 20.9748 ], [ 105.6838, 20.9704 ], [ 105.6847, 20.9696 ], [ 105.687, 20.9697 ], [ 105.6891, 20.9744 ], [ 105.6953, 20.9785 ], [ 105.6991, 20.978 ], [ 105.7053, 20.9736 ], [ 105.7093, 20.9727 ], [ 105.713, 20.969 ], [ 105.715, 20.9631 ], [ 105.7249, 20.9554 ], [ 105.7253, 20.9515 ], [ 105.716, 20.9557 ], [ 105.7121, 20.9553 ], [ 105.7092, 20.9579 ], [ 105.7072, 20.9563 ], [ 105.7046, 20.9578 ], [ 105.6944, 20.9553 ], [ 105.6935, 20.9571 ], [ 105.6951, 20.9647 ], [ 105.6923, 20.9616 ], [ 105.6862, 20.9612 ], [ 105.6865, 20.9586 ], [ 105.6827, 20.9579 ], [ 105.6831, 20.9553 ], [ 105.6799, 20.9541 ], [ 105.6785, 20.9507 ], [ 105.6628, 20.9489 ], [ 105.6523, 20.9515 ], [ 105.6451, 20.951 ], [ 105.6427, 20.9541 ], [ 105.6383, 20.9529 ], [ 105.6385, 20.9541 ], [ 105.6337, 20.9549 ], [ 105.6327, 20.9497 ], [ 105.6259, 20.9411 ], [ 105.6222, 20.9398 ], [ 105.6234, 20.9383 ], [ 105.618, 20.9364 ], [ 105.6202, 20.9329 ], [ 105.617, 20.9304 ] ] ] ] } },
{ "type": "Feature", "properties": { "name": "Sóc Sơn", "kind": "Huyện", "slug": "SocSon" }, "geometry": { "type": "MultiPolygon", "coordinates": [ [ [ [ 105.9004, 21.1821 ], [ 105.9014, 21.1781 ], [ 105.8964, 21.177 ], [ 105.8984, 21.183 ], [ 105.8893, 21.1854 ], [ 105.8867, 21.1901 ], [ 105.8768, 21.1868 ], [ 105.8763, 21.1887 ], [ 105.8823, 21.1896 ], [ 105.8861, 21.1987 ], [ 105.8919, 21.2024 ], [ 105.8872, 21.2058 ], [ 105.875, 21.202 ], [ 105.8716, 21.2065 ], [ 105.8723, 21.1988 ], [ 105.8689, 21.1975 ], [ 105.867, 21.1982 ], [ 105.8668, 21.2007 ], [ 105.8631, 21.2 ], [ 105.8591, 21.1951 ], [ 105.8493, 21.19 ], [ 105.8453, 21.1888 ], [ 105.8405, 21.1905 ], [ 105.835, 21.1863 ], [ 105.8286, 21.1884 ], [ 105.8163, 21.1842 ], [ 105.8128, 21.185 ], [ 105.8154, 21.1874 ], [ 105.8121, 21.1909 ], [ 105.8082, 21.1908 ], [ 105.8022, 21.1876 ], [ 105.7999, 21.1876 ], [ 105.7948, 21.1926 ], [ 105.7905, 21.1906 ], [ 105.7876, 21.197 ], [ 105.7784, 21.1999 ], [ 105.7713, 21.2087 ], [ 105.7704, 21.2067 ], [ 105.7689, 21.2142 ], [ 105.7634, 21.2131 ], [ 105.7605, 21.2147 ], [ 105.7581, 21.2229 ], [ 105.7538, 21.222 ], [ 105.7501, 21.228 ], [ 105.7331, 21.2337 ], [ 105.73, 21.2383 ], [ 105.7352, 21.2352 ], [ 105.7377, 21.2365 ], [ 105.7343, 21.2417 ], [ 105.7286, 21.2407 ], [ 105.7251, 21.2423 ], [ 105.7292, 21.2489 ], [ 105.7234, 21.2507 ], [ 105.7248, 21.2581 ], [ 105.7228, 21.2661 ], [ 105.7292, 21.2691 ], [ 105.7259, 21.2711 ], [ 105.7257, 21.2733 ], [ 105.7279, 21.2729 ], [ 105.7291, 21.2759 ], [ 105.7326, 21.275 ], [ 105.7335, 21.2794 ], [ 105.7361, 21.2795 ], [ 105.7352, 21.2843 ], [ 105.737, 21.2857 ], [ 105.7364, 21.2867 ], [ 105.7382, 21.2881 ], [ 105.7395, 21.2866 ], [ 105.7397, 21.2878 ], [ 105.742, 21.2872 ], [ 105.7427, 21.289 ], [ 105.7409, 21.2906 ], [ 105.7429, 21.2902 ], [ 105.7432, 21.2929 ], [ 105.7451, 21.2919 ], [ 105.7456, 21.2945 ], [ 105.7495, 21.2959 ], [ 105.7533, 21.2949 ], [ 105.7529, 21.2973 ], [ 105.757, 21.3005 ], [ 105.7623, 21.3134 ], [ 105.7676, 21.3183 ], [ 105.772, 21.3255 ], [ 105.7762, 21.3371 ], [ 105.7832, 21.3429 ], [ 105.7852, 21.3429 ], [ 105.783, 21.3538 ], [ 105.7861, 21.3547 ], [ 105.7846, 21.3597 ], [ 105.7873, 21.3711 ], [ 105.7901, 21.3733 ], [ 105.788, 21.3757 ], [ 105.7967, 21.3809 ], [ 105.7966, 21.3827 ], [ 105.7996, 21.3819 ], [ 105.8012, 21.3852 ], [ 105.8127, 21.3804 ], [ 105.8138, 21.3828 ], [ 105.8164, 21.383 ], [ 105.8214, 21.378 ], [ 105.8303, 21.3757 ], [ 105.832, 21.3733 ], [ 105.8352, 21.3733 ], [ 105.8397, 21.3774 ], [ 105.8472, 21.3774 ], [ 105.8494, 21.3743 ], [ 105.8562, 21.3765 ], [ 105.8589, 21.3742 ], [ 105.8577, 21.3711 ], [ 105.8592, 21.3666 ], [ 105.8546, 21.3676 ], [ 105.8532, 21.3591 ], [ 105.8516, 21.3576 ], [ 105.8517, 21.3555 ], [ 105.8547, 21.3523 ], [ 105.8524, 21.3491 ], [ 105.8589, 21.3457 ], [ 105.8567, 21.3459 ], [ 105.8556, 21.3428 ], [ 105.8586, 21.3382 ], [ 105.863, 21.338 ], [ 105.8668, 21.3283 ], [ 105.8686, 21.3268 ], [ 105.8717, 21.3297 ], [ 105.8895, 21.3253 ], [ 105.8979, 21.3271 ], [ 105.8995, 21.3241 ], [ 105.8976, 21.3071 ], [ 105.9046, 21.302 ], [ 105.9089, 21.3016 ], [ 105.9165, 21.3056 ], [ 105.9175, 21.3041 ], [ 105.9152, 21.2971 ], [ 105.9163, 21.295 ], [ 105.9308, 21.2949 ], [ 105.9303, 21.2914 ], [ 105.9232, 21.2876 ], [ 105.9221, 21.2782 ], [ 105.923, 21.2694 ], [ 105.9386, 21.2451 ], [ 105.9374, 21.2432 ], [ 105.935, 21.2454 ], [ 105.9263, 21.2447 ], [ 105.9276, 21.2393 ], [ 105.9204, 21.2342 ], [ 105.9193, 21.231 ], [ 105.9065, 21.2323 ], [ 105.9052, 21.2306 ], [ 105.9066, 21.2292 ], [ 105.9043, 21.2274 ], [ 105.9036, 21.2238 ], [ 105.905, 21.2224 ], [ 105.9105, 21.2244 ], [ 105.9145, 21.2182 ], [ 105.9156, 21.2094 ], [ 105.9099, 21.2073 ], [ 105.9137, 21.2034 ], [ 105.9112, 21.2012 ], [ 105.903, 21.2024 ], [ 105.9071, 21.1924 ], [ 105.9054, 21.1829 ], [ 105.9004, 21.1821 ] ] ] ] } },
{ "type": "Feature", "properties": { "name": "Sơn Tây", "kind": "Thị xã", "slug": "SonTay" }, "geometry": { "type": "MultiPolygon", "coordinates": [ [ [ [ 105.4649, 21.0245 ], [ 105.463, 21.0277 ], [ 105.4572, 21.0318 ], [ 105.459, 21.0477 ], [ 105.4572, 21.0497 ], [ 105.4585, 21.0552 ], [ 105.4614, 21.058 ], [ 105.4609, 21.0643 ], [ 105.4658, 21.0717 ], [ 105.4606, 21.068 ], [ 105.4612, 21.0662 ], [ 105.4582, 21.0589 ], [ 105.4569, 21.0623 ], [ 105.4597, 21.0665 ], [ 105.4596, 21.0704 ], [ 105.4544, 21.0633 ], [ 105.4544, 21.0672 ], [ 105.449, 21.063 ], [ 105.4451, 21.0622 ], [ 105.4401, 21.0657 ], [ 105.4412, 21.0671 ], [ 105.4392, 21.0695 ], [ 105.4414, 21.0733 ], [ 105.441, 21.0775 ], [ 105.4384, 21.0795 ], [ 105.44, 21.0798 ], [ 105.4402, 21.0817 ], [ 105.4381, 21.0817 ], [ 105.4389, 21.0869 ], [ 105.4408, 21.0919 ], [ 105.4453, 21.0951 ], [ 105.4411, 21.0976 ], [ 105.4426, 21.0989 ], [ 105.4403, 21.1022 ], [ 105.4409, 21.1046 ], [ 105.4348, 21.1017 ], [ 105.4302, 21.1039 ], [ 105.4267, 21.1035 ], [ 105.4266, 21.1055 ], [ 105.4238, 21.1047 ], [ 105.4303, 21.1066 ], [ 105.4314, 21.1094 ], [ 105.4296, 21.1116 ], [ 105.4292, 21.1173 ], [ 105.4311, 21.12 ], [ 105.4253, 21.1221 ], [ 105.4252, 21.1286 ], [ 105.4203, 21.1316 ], [ 105.4186, 21.1348 ], [ 105.4136, 21.1352 ], [ 105.4155, 21.1389 ], [ 105.4187, 21.1392 ], [ 105.4202, 21.1437 ], [ 105.4239, 21.1472 ], [ 105.4278, 21.1475 ], [ 105.4321, 21.1511 ], [ 105.4346, 21.1514 ], [ 105.4378, 21.1472 ], [ 105.4454, 21.1493 ], [ 105.4461, 21.1467 ], [ 105.4489, 21.147 ], [ 105.4484, 21.144 ], [ 105.4514, 21.1427 ], [ 105.4539, 21.1453 ], [ 105.452, 21.1472 ], [ 105.457, 21.1455 ], [ 105.4593, 21.1497 ], [ 105.4614, 21.1502 ], [ 105.4605, 21.1538 ], [ 105.4622, 21.1563 ], [ 105.464, 21.1559 ], [ 105.463, 21.1595 ], [ 105.467, 21.1613 ], [ 105.466, 21.1625 ], [ 105.4675, 21.1637 ], [ 105.4678, 21.1686 ], [ 105.4695, 21.1678 ], [ 105.4751, 21.1726 ], [ 105.4862, 21.163 ], [ 105.4947, 21.1599 ], [ 105.5159, 21.1563 ], [ 105.5153, 21.1524 ], [ 105.5171, 21.1512 ], [ 105.5162, 21.1411 ], [ 105.5211, 21.1403 ], [ 105.5223, 21.1356 ], [ 105.5246, 21.1338 ], [ 105.5218, 21.133 ], [ 105.5191, 21.1286 ], [ 105.517, 21.13 ], [ 105.516, 21.1279 ], [ 105.5138, 21.1299 ], [ 105.5114, 21.1243 ], [ 105.5093, 21.125 ], [ 105.5051, 21.1227 ], [ 105.5054, 21.12 ], [ 105.5023, 21.1163 ], [ 105.5019, 21.1096 ], [ 105.503, 21.1066 ], [ 105.5057, 21.1061 ], [ 105.5071, 21.1017 ], [ 105.5055, 21.0993 ], [ 105.5036, 21.1 ], [ 105.5004, 21.0982 ], [ 105.5023, 21.095 ], [ 105.5073, 21.0963 ], [ 105.5077, 21.0978 ], [ 105.5118, 21.095 ], [ 105.5104, 21.0938 ], [ 105.5144, 21.0903 ], [ 105.525, 21.0893 ], [ 105.5233, 21.0878 ], [ 105.5237, 21.0843 ], [ 105.5323, 21.0807 ], [ 105.533, 21.076 ], [ 105.5311, 21.0754 ], [ 105.5376, 21.0726 ], [ 105.5313, 21.0693 ], [ 105.5293, 21.064 ], [ 105.5314, 21.0614 ], [ 105.5341, 21.0609 ], [ 105.534, 21.0556 ], [ 105.5359, 21.0553 ], [ 105.5316, 21.0521 ], [ 105.5349, 21.0522 ], [ 105.5346, 21.0504 ], [ 105.5301, 21.0493 ], [ 105.5285, 21.0432 ], [ 105.5268, 21.0432 ], [ 105.5226, 21.0372 ], [ 105.5172, 21.0358 ], [ 105.5173, 21.033 ], [ 105.515, 21.0327 ], [ 105.5116, 21.0272 ], [ 105.5093, 21.0279 ], [ 105.5094, 21.0255 ], [ 105.5064, 21.0248 ], [ 105.488, 21.0405 ], [ 105.4716, 21.021 ], [ 105.4649, 21.0245 ] ] ] ] } },
{ "type": "Feature", "properties": { "name": "Tây Hồ", "kind": "Quận", "slug": "TayHo" }, "geometry": { "type": "MultiPolygon", "coordinates": [ [ [ [ 105.8417, 21.0812 ], [ 105.8492, 21.0544 ], [ 105.8421, 21.0485 ], [ 105.84, 21.0506 ], [ 105.8369, 21.047 ], [ 105.8363, 21.0417 ], [ 105.831, 21.0417 ], [ 105.8283, 21.0396 ], [ 105.8146, 21.043 ], [ 105.8109, 21.0462 ], [ 105.8061, 21.0476 ], [ 105.8091, 21.0524 ], [ 105.8089, 21.0589 ], [ 105.8082, 21.0555 ], [ 105.806, 21.0557 ], [ 105.8055, 21.053 ], [ 105.8018, 21.0495 ], [ 105.7982, 21.0477 ], [ 105.7949, 21.0503 ], [ 105.7999, 21.0553 ], [ 105.7966, 21.058 ], [ 105.805, 21.0659 ], [ 105.8038, 21.0724 ], [ 105.8, 21.0738 ], [ 105.8011, 21.0784 ], [ 105.7958, 21.0802 ], [ 105.7946, 21.0793 ], [ 105.7931, 21.0901 ], [ 105.7917, 21.0902 ], [ 105.7952, 21.0983 ], [ 105.7985, 21.1006 ], [ 105.8056, 21.103 ], [ 105.8092, 21.1024 ], [ 105.824, 21.0962 ], [ 105.8288, 21.0938 ], [ 105.8359, 21.0854 ], [ 105.8417, 21.0812 ] ] ] ] } },
{ "type": "Feature", "properties": { "name": "Thạch Thất", "kind": "Huyện", "slug": "ThachThat" }, "geometry": { "type": "MultiPolygon", "coordinates": [ [ [ [ 105.4914, 20.9619 ], [ 105.492, 20.9565 ], [ 105.487, 20.9518 ], [ 105.4859, 20.9475 ], [ 105.4693, 20.9471 ], [ 105.4671, 20.9451 ], [ 105.4617, 20.9465 ], [ 105.4514, 20.954 ], [ 105.4438, 20.956 ], [ 105.4429, 20.9633 ], [ 105.4362, 20.9748 ], [ 105.4324, 20.9791 ], [ 105.4223, 20.9837 ], [ 105.4178, 20.9978 ], [ 105.4032, 20.9981 ], [ 105.3969, 21.0009 ], [ 105.3921, 21.006 ], [ 105.3921, 21.0145 ], [ 105.4026, 21.0138 ], [ 105.4113, 21.0182 ], [ 105.413, 21.0142 ], [ 105.4168, 21.0113 ], [ 105.4313, 21.0147 ], [ 105.4339, 21.0171 ], [ 105.4439, 21.0139 ], [ 105.4477, 21.015 ], [ 105.4548, 21.0115 ], [ 105.4602, 21.013 ], [ 105.4671, 21.009 ], [ 105.4716, 21.021 ], [ 105.488, 21.0405 ], [ 105.5064, 21.0248 ], [ 105.5094, 21.0255 ], [ 105.5093, 21.0279 ], [ 105.5116, 21.0272 ], [ 105.515, 21.0327 ], [ 105.5173, 21.033 ], [ 105.5172, 21.0358 ], [ 105.5226, 21.0372 ], [ 105.5268, 21.0432 ], [ 105.5285, 21.0432 ], [ 105.5301, 21.0493 ], [ 105.535, 21.0512 ], [ 105.5316, 21.0521 ], [ 105.5359, 21.0553 ], [ 105.534, 21.0556 ], [ 105.5341, 21.0609 ], [ 105.5314, 21.0614 ], [ 105.5293, 21.064 ], [ 105.5313, 21.0693 ], [ 105.5376, 21.0736 ], [ 105.532, 21.0742 ], [ 105.5311, 21.0754 ], [ 105.533, 21.076 ], [ 105.5323, 21.0807 ], [ 105.5245, 21.0834 ], [ 105.5233, 21.0878 ], [ 105.5272, 21.0893 ], [ 105.528, 21.0913 ], [ 105.5322, 21.09 ], [ 105.5395, 21.0909 ], [ 105.5434, 21.0959 ], [ 105.5461, 21.0936 ], [ 105.5473, 21.0952 ], [ 105.5495, 21.0949 ], [ 105.55, 21.0968 ], [ 105.5545, 21.096 ], [ 105.5576, 21.1018 ], [ 105.5634, 21.0999 ], [ 105.5759, 21.0993 ], [ 105.5767, 21.0923 ], [ 105.5751, 21.0821 ], [ 105.5832, 21.0748 ], [ 105.5932, 21.0784 ], [ 105.5949, 21.0747 ], [ 105.6077, 21.0703 ], [ 105.611, 21.0728 ], [ 105.6158, 21.0681 ], [ 105.6165, 21.069 ], [ 105.6244, 21.0649 ], [ 105.6292, 21.0598 ], [ 105.6326, 21.0524 ], [ 105.6308, 21.0511 ], [ 105.6355, 21.042 ], [ 105.6349, 21.0366 ], [ 105.6324, 21.0369 ], [ 105.6334, 21.035 ], [ 105.6307, 21.027 ], [ 105.6342, 21.0252 ], [ 105.6291, 21.0167 ], [ 105.6331, 21.0132 ], [ 105.6358, 21.0153 ], [ 105.6397, 21.0119 ], [ 105.6397, 21.0096 ], [ 105.6365, 21.0111 ], [ 105.6343, 21.0078 ], [ 105.6312, 21.0097 ], [ 105.6272, 21.0033 ], [ 105.6236, 21.0071 ], [ 105.6172, 21.0046 ], [ 105.6151, 21.007 ], [ 105.6079, 21.0048 ], [ 105.6079, 21.0034 ], [ 105.6067, 21.0045 ], [ 105.6015, 21.0029 ], [ 105.596, 21.0087 ], [ 105.5973, 21.0095 ], [ 105.5955, 21.0132 ], [ 105.5938, 21.0127 ], [ 105.5938, 21.0093 ], [ 105.5907, 21.005 ], [ 105.5926, 21.0038 ], [ 105.5856, 21.0028 ], [ 105.5841, 21.0042 ], [ 105.5807, 21.0012 ], [ 105.5804, 20.9968 ], [ 105.582, 20.9961 ], [ 105.5795, 20.9922 ], [ 105.5825, 20.9904 ], [ 105.5802, 20.9854 ], [ 105.581, 20.983 ], [ 105.578, 20.9819 ], [ 105.5769, 20.9828 ], [ 105.578, 20.9858 ], [ 105.5759, 20.9856 ], [ 105.5747, 20.9828 ], [ 105.5762, 20.978 ], [ 105.5734, 20.9776 ], [ 105.5742, 20.9751 ], [ 105.5722, 20.9745 ], [ 105.5695, 20.9771 ], [ 105.5654, 20.9776 ], [ 105.5668, 20.9791 ], [ 105.5618, 20.9826 ], [ 105.5544, 20.9834 ], [ 105.5561, 20.9908 ], [ 105.5517, 20.9879 ], [ 105.5516, 20.9857 ], [ 105.549, 20.9869 ], [ 105.5487, 20.9838 ], [ 105.5416, 20.9789 ], [ 105.5355, 20.9798 ], [ 105.5358, 20.9785 ], [ 105.5341, 20.9777 ], [ 105.5305, 20.9798 ], [ 105.5268, 20.9737 ], [ 105.5235, 20.9731 ], [ 105.5242, 20.9695 ], [ 105.5196, 20.9738 ], [ 105.5118, 20.9774 ], [ 105.5141, 20.9786 ], [ 105.5122, 20.9802 ], [ 105.5039, 20.9797 ], [ 105.5027, 20.9693 ], [ 105.4914, 20.9619 ] ] ] ] } },
{ "type": "Feature", "properties": { "name": "Thanh Oai", "kind": "Huyện", "slug": "ThanhOai" }, "geometry": { "type": "MultiPolygon", "coordinates": [ [ [ [ 105.8067, 20.7802 ], [ 105.7952, 20.7837 ], [ 105.7885, 20.7893 ], [ 105.7859, 20.7891 ], [ 105.7846, 20.7918 ], [ 105.7802, 20.7888 ], [ 105.7769, 20.7906 ], [ 105.7759, 20.788 ], [ 105.7687, 20.7882 ], [ 105.7659, 20.7823 ], [ 105.7637, 20.788 ], [ 105.7597, 20.7903 ], [ 105.7574, 20.7874 ], [ 105.7546, 20.7914 ], [ 105.7531, 20.7904 ], [ 105.7513, 20.7926 ], [ 105.7454, 20.7889 ], [ 105.7385, 20.7933 ], [ 105.7393, 20.797 ], [ 105.735, 20.8091 ], [ 105.7439, 20.8052 ], [ 105.7553, 20.8137 ], [ 105.7527, 20.8208 ], [ 105.7544, 20.8266 ], [ 105.7612, 20.8347 ], [ 105.7608, 20.8371 ], [ 105.7392, 20.8368 ], [ 105.7338, 20.8406 ], [ 105.7364, 20.8451 ], [ 105.7555, 20.848 ], [ 105.7564, 20.8507 ], [ 105.7512, 20.8557 ], [ 105.7417, 20.8593 ], [ 105.7336, 20.8652 ], [ 105.7287, 20.872 ], [ 105.7296, 20.876 ], [ 105.7344, 20.873 ], [ 105.7376, 20.8752 ], [ 105.7391, 20.8864 ], [ 105.7359, 20.8923 ], [ 105.7306, 20.8939 ], [ 105.7269, 20.8933 ], [ 105.7268, 20.8971 ], [ 105.7251, 20.8983 ], [ 105.7304, 20.9072 ], [ 105.7369, 20.9135 ], [ 105.7408, 20.9126 ], [ 105.7419, 20.9154 ], [ 105.7494, 20.9166 ], [ 105.7485, 20.9205 ], [ 105.7506, 20.9208 ], [ 105.7513, 20.9233 ], [ 105.7507, 20.9259 ], [ 105.7489, 20.9263 ], [ 105.7503, 20.9302 ], [ 105.7578, 20.9306 ], [ 105.7576, 20.9328 ], [ 105.7622, 20.9299 ], [ 105.7601, 20.9284 ], [ 105.7671, 20.9229 ], [ 105.7765, 20.9274 ], [ 105.7758, 20.9292 ], [ 105.7839, 20.9311 ], [ 105.7859, 20.9346 ], [ 105.7857, 20.9392 ], [ 105.7989, 20.939 ], [ 105.7983, 20.937 ], [ 105.8016, 20.9357 ], [ 105.8016, 20.9342 ], [ 105.7992, 20.9343 ], [ 105.7976, 20.9308 ], [ 105.7916, 20.9272 ], [ 105.7917, 20.9215 ], [ 105.7894, 20.9197 ], [ 105.7914, 20.9152 ], [ 105.7947, 20.9149 ], [ 105.7967, 20.912 ], [ 105.798, 20.9131 ], [ 105.8029, 20.9126 ], [ 105.8045, 20.9096 ], [ 105.8064, 20.9099 ], [ 105.8157, 20.9027 ], [ 105.8162, 20.8995 ], [ 105.8127, 20.8981 ], [ 105.815, 20.8955 ], [ 105.8128, 20.8953 ], [ 105.8127, 20.8931 ], [ 105.8157, 20.886 ], [ 105.8141, 20.8798 ], [ 105.8159, 20.8792 ], [ 105.8168, 20.8741 ], [ 105.8156, 20.8703 ], [ 105.8241, 20.8698 ], [ 105.8225, 20.8661 ], [ 105.8244, 20.8615 ], [ 105.8194, 20.8585 ], [ 105.8222, 20.8566 ], [ 105.8214, 20.8539 ], [ 105.8236, 20.8416 ], [ 105.8218, 20.8411 ], [ 105.8271, 20.8344 ], [ 105.8292, 20.8274 ], [ 105.8273, 20.8277 ], [ 105.8303, 20.8254 ], [ 105.8376, 20.8239 ], [ 105.8368, 20.8175 ], [ 105.8415, 20.8149 ], [ 105.8392, 20.8142 ], [ 105.8397, 20.8099 ], [ 105.8388, 20.8051 ], [ 105.8369, 20.8049 ], [ 105.8368, 20.8004 ], [ 105.8328, 20.8006 ], [ 105.8317, 20.8062 ], [ 105.8238, 20.8065 ], [ 105.8171, 20.8044 ], [ 105.8208, 20.7951 ], [ 105.8187, 20.7941 ], [ 105.8139, 20.802 ], [ 105.81, 20.7988 ], [ 105.8084, 20.7923 ], [ 105.8111, 20.7878 ], [ 105.8067, 20.7802 ] ] ] ] } },
{ "type": "Feature", "properties": { "name": "Thanh Trì", "kind": "Huyện", "slug": "ThanhTri" }, "geometry": { "type": "MultiPolygon", "coordinates": [ [ [ [ 105.8535, 20.9021 ], [ 105.8539, 20.897 ], [ 105.8396, 20.9028 ], [ 105.8411, 20.9085 ], [ 105.8395, 20.9095 ], [ 105.8334, 20.9092 ], [ 105.8329, 20.9016 ], [ 105.831, 20.9002 ], [ 105.8291, 20.9009 ], [ 105.8285, 20.8998 ], [ 105.8304, 20.8981 ], [ 105.8279, 20.8973 ], [ 105.8253, 20.9033 ], [ 105.8157, 20.9027 ], [ 105.8064, 20.9099 ], [ 105.8045, 20.9096 ], [ 105.8029, 20.9126 ], [ 105.798, 20.9131 ], [ 105.7967, 20.912 ], [ 105.7947, 20.9149 ], [ 105.7914, 20.9152 ], [ 105.7894, 20.9197 ], [ 105.7917, 20.9215 ], [ 105.7916, 20.9272 ], [ 105.7976, 20.9308 ], [ 105.7992, 20.9343 ], [ 105.8016, 20.9342 ], [ 105.8016, 20.9357 ], [ 105.7983, 20.937 ], [ 105.7989, 20.939 ], [ 105.7928, 20.9385 ], [ 105.7882, 20.941 ], [ 105.7885, 20.9421 ], [ 105.7918, 20.9425 ], [ 105.7949, 20.9549 ], [ 105.8002, 20.9583 ], [ 105.8021, 20.957 ], [ 105.8043, 20.959 ], [ 105.7928, 20.9643 ], [ 105.7919, 20.9657 ], [ 105.7931, 20.9676 ], [ 105.7906, 20.969 ], [ 105.7937, 20.9712 ], [ 105.7937, 20.9738 ], [ 105.7992, 20.9753 ], [ 105.7986, 20.9783 ], [ 105.7972, 20.9781 ], [ 105.7948, 20.9808 ], [ 105.7971, 20.9847 ], [ 105.8011, 20.9833 ], [ 105.8002, 20.986 ], [ 105.8031, 20.9865 ], [ 105.81, 20.9843 ], [ 105.8075, 20.9739 ], [ 105.8121, 20.971 ], [ 105.8156, 20.9702 ], [ 105.8196, 20.9724 ], [ 105.825, 20.9707 ], [ 105.8181, 20.9631 ], [ 105.8185, 20.9611 ], [ 105.8164, 20.9607 ], [ 105.8212, 20.9571 ], [ 105.8257, 20.9564 ], [ 105.8309, 20.953 ], [ 105.8315, 20.9554 ], [ 105.8338, 20.9552 ], [ 105.836, 20.9589 ], [ 105.8387, 20.9571 ], [ 105.8427, 20.9582 ], [ 105.8442, 20.9511 ], [ 105.8585, 20.9573 ], [ 105.86, 20.9537 ], [ 105.8637, 20.9513 ], [ 105.8699, 20.9504 ], [ 105.8732, 20.9551 ], [ 105.8864, 20.9452 ], [ 105.8832, 20.9409 ], [ 105.8805, 20.9312 ], [ 105.8837, 20.9292 ], [ 105.8982, 20.929 ], [ 105.9091, 20.9265 ], [ 105.9162, 20.9212 ], [ 105.9132, 20.9148 ], [ 105.8997, 20.9051 ], [ 105.8927, 20.9094 ], [ 105.8882, 20.9062 ], [ 105.8881, 20.9082 ], [ 105.8802, 20.9098 ], [ 105.8807, 20.9118 ], [ 105.8764, 20.9103 ], [ 105.8756, 20.9062 ], [ 105.8677, 20.9091 ], [ 105.8648, 20.905 ], [ 105.859, 20.9072 ], [ 105.8535, 20.9021 ] ] ] ] } },
{ "type": "Feature", "properties": { "name": "Thanh Xuân", "kind": "Quận", "slug": "ThanhXuan" }, "geometry": { "type": "MultiPolygon", "coordinates": [ [ [ [ 105.81, 20.9843 ], [ 105.8011, 20.9865 ], [ 105.8011, 20.9833 ], [ 105.7967, 20.9843 ], [ 105.7955, 20.986 ], [ 105.7992, 20.9886 ], [ 105.7956, 20.9917 ], [ 105.7967, 20.9952 ], [ 105.7954, 20.9956 ], [ 105.7959, 20.9985 ], [ 105.7923, 20.9994 ], [ 105.793, 21.0011 ], [ 105.8047, 21.0085 ], [ 105.8105, 21.007 ], [ 105.8135, 21.0088 ], [ 105.8181, 21.0016 ], [ 105.8202, 21.0031 ], [ 105.8427, 20.9973 ], [ 105.8411, 20.9854 ], [ 105.8375, 20.9839 ], [ 105.8301, 20.9935 ], [ 105.8285, 20.9936 ], [ 105.8231, 20.9869 ], [ 105.8187, 20.9844 ], [ 105.8184, 20.9807 ], [ 105.8157, 20.9833 ], [ 105.8135, 20.9807 ], [ 105.8108, 20.9812 ], [ 105.81, 20.9843 ] ] ] ] } },
{ "type": "Feature", "properties": { "name": "Thường Tín", "kind": "Huyện", "slug": "ThuongTin" }, "geometry": { "type": "MultiPolygon", "coordinates": [ [ [ [ 105.9105, 20.7575 ], [ 105.9063, 20.7565 ], [ 105.905, 20.7529 ], [ 105.9036, 20.7536 ], [ 105.903, 20.7523 ], [ 105.8991, 20.7548 ], [ 105.8943, 20.7553 ], [ 105.8901, 20.7519 ], [ 105.8874, 20.754 ], [ 105.8869, 20.756 ], [ 105.8913, 20.7639 ], [ 105.8956, 20.7673 ], [ 105.8949, 20.7688 ], [ 105.8968, 20.7723 ], [ 105.8958, 20.7736 ], [ 105.8899, 20.7722 ], [ 105.887, 20.7813 ], [ 105.8849, 20.7806 ], [ 105.8843, 20.7826 ], [ 105.882, 20.7817 ], [ 105.8803, 20.7828 ], [ 105.8819, 20.7836 ], [ 105.878, 20.786 ], [ 105.877, 20.7849 ], [ 105.8684, 20.7898 ], [ 105.8717, 20.7944 ], [ 105.8694, 20.7956 ], [ 105.87, 20.7968 ], [ 105.8531, 20.8019 ], [ 105.8426, 20.7961 ], [ 105.8341, 20.7951 ], [ 105.8342, 20.8006 ], [ 105.8368, 20.8004 ], [ 105.8369, 20.8049 ], [ 105.8388, 20.8051 ], [ 105.8392, 20.8142 ], [ 105.8415, 20.8149 ], [ 105.8368, 20.8175 ], [ 105.8376, 20.8239 ], [ 105.8303, 20.8254 ], [ 105.8273, 20.8277 ], [ 105.8292, 20.8274 ], [ 105.8271, 20.8344 ], [ 105.8218, 20.8411 ], [ 105.8236, 20.8416 ], [ 105.8214, 20.8539 ], [ 105.8222, 20.8566 ], [ 105.8194, 20.8585 ], [ 105.8244, 20.8615 ], [ 105.8225, 20.8661 ], [ 105.8241, 20.8698 ], [ 105.8156, 20.8703 ], [ 105.8168, 20.8741 ], [ 105.8159, 20.8792 ], [ 105.8141, 20.8798 ], [ 105.8157, 20.886 ], [ 105.8127, 20.8931 ], [ 105.8128, 20.8953 ], [ 105.815, 20.8955 ], [ 105.8127, 20.8981 ], [ 105.8162, 20.8995 ], [ 105.8157, 20.9027 ], [ 105.8253, 20.9033 ], [ 105.8279, 20.8973 ], [ 105.8304, 20.8981 ], [ 105.8285, 20.8998 ], [ 105.8291, 20.9009 ], [ 105.831, 20.9002 ], [ 105.8329, 20.9016 ], [ 105.8334, 20.9092 ], [ 105.8395, 20.9095 ], [ 105.8411, 20.9085 ], [ 105.8396, 20.9028 ], [ 105.8539, 20.897 ], [ 105.8535, 20.9021 ], [ 105.859, 20.9072 ], [ 105.8648, 20.905 ], [ 105.8677, 20.9091 ], [ 105.8756, 20.9062 ], [ 105.8764, 20.9103 ], [ 105.8807, 20.9118 ], [ 105.8802, 20.9098 ], [ 105.8881, 20.9082 ], [ 105.8894, 20.906 ], [ 105.8927, 20.9094 ], [ 105.8997, 20.9051 ], [ 105.8958, 20.9013 ], [ 105.8947, 20.8978 ], [ 105.8983, 20.8909 ], [ 105.9249, 20.8782 ], [ 105.9313, 20.8741 ], [ 105.9354, 20.8686 ], [ 105.9361, 20.8561 ], [ 105.932, 20.8501 ], [ 105.919, 20.8435 ], [ 105.9127, 20.8349 ], [ 105.9116, 20.8213 ], [ 105.9164, 20.8047 ], [ 105.9232, 20.7909 ], [ 105.9173, 20.7871 ], [ 105.9164, 20.7886 ], [ 105.9133, 20.7868 ], [ 105.9118, 20.7745 ], [ 105.9194, 20.7639 ], [ 105.9124, 20.7607 ], [ 105.9105, 20.7575 ] ] ] ] } },
{ "type": "Feature", "properties": { "name": "Ứng Hòa", "kind": "Huyện", "slug": "UngHoa" }, "geometry": { "type": "MultiPolygon", "coordinates": [ [ [ [ 105.8228, 20.6572 ], [ 105.8265, 20.6527 ], [ 105.8337, 20.6492 ], [ 105.8336, 20.6471 ], [ 105.8308, 20.6439 ], [ 105.8133, 20.6337 ], [ 105.8111, 20.6278 ], [ 105.8129, 20.6187 ], [ 105.8066, 20.6171 ], [ 105.8034, 20.6127 ], [ 105.7982, 20.6118 ], [ 105.785, 20.618 ], [ 105.7774, 20.6238 ], [ 105.7783, 20.626 ], [ 105.795, 20.6279 ], [ 105.8005, 20.6315 ], [ 105.8036, 20.6375 ], [ 105.8023, 20.6415 ], [ 105.7904, 20.6485 ], [ 105.7803, 20.6614 ], [ 105.7703, 20.6703 ], [ 105.746, 20.6872 ], [ 105.7426, 20.6923 ], [ 105.7458, 20.6965 ], [ 105.7551, 20.6979 ], [ 105.7609, 20.7019 ], [ 105.7627, 20.7059 ], [ 105.7629, 20.7189 ], [ 105.766, 20.7216 ], [ 105.7709, 20.7228 ], [ 105.7711, 20.7244 ], [ 105.7614, 20.7316 ], [ 105.7554, 20.7287 ], [ 105.7439, 20.7275 ], [ 105.735, 20.7219 ], [ 105.7314, 20.7222 ], [ 105.7336, 20.7302 ], [ 105.732, 20.736 ], [ 105.7298, 20.7376 ], [ 105.7085, 20.7423 ], [ 105.6981, 20.7416 ], [ 105.6971, 20.7428 ], [ 105.6977, 20.751 ], [ 105.7056, 20.7518 ], [ 105.7145, 20.757 ], [ 105.7226, 20.7659 ], [ 105.7263, 20.7727 ], [ 105.7247, 20.7785 ], [ 105.7172, 20.7829 ], [ 105.7054, 20.7985 ], [ 105.7093, 20.8097 ], [ 105.7258, 20.8075 ], [ 105.735, 20.8091 ], [ 105.7393, 20.797 ], [ 105.7385, 20.7933 ], [ 105.7454, 20.7889 ], [ 105.7513, 20.7926 ], [ 105.7531, 20.7904 ], [ 105.7546, 20.7914 ], [ 105.7574, 20.7874 ], [ 105.7597, 20.7903 ], [ 105.7637, 20.788 ], [ 105.7659, 20.7823 ], [ 105.7687, 20.7882 ], [ 105.7759, 20.788 ], [ 105.7769, 20.7906 ], [ 105.7802, 20.7888 ], [ 105.7846, 20.7918 ], [ 105.7859, 20.7891 ], [ 105.7885, 20.7893 ], [ 105.7952, 20.7837 ], [ 105.8067, 20.7802 ], [ 105.8028, 20.7796 ], [ 105.8047, 20.7788 ], [ 105.8056, 20.7757 ], [ 105.8036, 20.7754 ], [ 105.8038, 20.7714 ], [ 105.7997, 20.771 ], [ 105.7963, 20.7617 ], [ 105.7921, 20.7627 ], [ 105.7924, 20.7587 ], [ 105.7939, 20.759 ], [ 105.7937, 20.7494 ], [ 105.8035, 20.7507 ], [ 105.8079, 20.7456 ], [ 105.8102, 20.7445 ], [ 105.8114, 20.746 ], [ 105.8135, 20.7448 ], [ 105.8129, 20.7431 ], [ 105.8207, 20.7392 ], [ 105.8222, 20.7417 ], [ 105.8266, 20.7371 ], [ 105.8443, 20.7418 ], [ 105.8459, 20.7411 ], [ 105.8462, 20.737 ], [ 105.8508, 20.7377 ], [ 105.8499, 20.7329 ], [ 105.8546, 20.7315 ], [ 105.8576, 20.725 ], [ 105.8551, 20.7219 ], [ 105.8604, 20.7189 ], [ 105.8603, 20.7151 ], [ 105.864, 20.7142 ], [ 105.8678, 20.7099 ], [ 105.8737, 20.71 ], [ 105.8716, 20.706 ], [ 105.8876, 20.6965 ], [ 105.889, 20.6919 ], [ 105.8914, 20.6934 ], [ 105.8919, 20.692 ], [ 105.8855, 20.69 ], [ 105.8843, 20.6857 ], [ 105.8826, 20.6854 ], [ 105.8836, 20.678 ], [ 105.8858, 20.6792 ], [ 105.8864, 20.6757 ], [ 105.8931, 20.6788 ], [ 105.8949, 20.6758 ], [ 105.9042, 20.6706 ], [ 105.9054, 20.6684 ], [ 105.9052, 20.6651 ], [ 105.903, 20.6648 ], [ 105.8962, 20.6688 ], [ 105.8964, 20.6522 ], [ 105.881, 20.6435 ], [ 105.867, 20.6454 ], [ 105.8586, 20.6448 ], [ 105.8545, 20.6465 ], [ 105.8455, 20.6568 ], [ 105.8437, 20.6548 ], [ 105.84, 20.6567 ], [ 105.8408, 20.6592 ], [ 105.8277, 20.6637 ], [ 105.8223, 20.6645 ], [ 105.8223, 20.6621 ], [ 105.8187, 20.6605 ], [ 105.8228, 20.6572 ] ] ] ] } }
]
}
